course_id,course,city,state,street,zip_code,lng,lat,hole,public_private,championship_par,championship_yards,championship_slope,championship_usga,middle_par,middle_yards,middle_slope,middle_usga,forward_par,forward_yards,forward_slope,forward_usga
7039,Otsego Club And Resort,Gaylord,Michigan,696 M-32 East Main Street,556,-84.65533409999999,45.0277331,18,Public,,,,,,,,,,,,
7671,Heart of the Valley Golf Club,Ada,Minnesota,SE Corner of Ada,56510,-96.51534629999999,47.299689,9,Semi-Private,,,,,36,2994,,,37,2560,,
7672,Cedar River Country Club,Adams,Minnesota,Hwy 56 W,55909,-92.71934089999999,43.5653812,18,Semi-Private,72,6298,119,69.30,72,6076,117,68.40,74,5553,119,71.30
7673,Adrian Golf Course,Adrian,Minnesota,Hwy 91 S,56110,-95.9331334,43.6349616,9,Semi-Private,36,3345,123,35.80,36,3140,120,35.00,36,2601,115,34.80
7674,Albany Golf Club,Albany,Minnesota,500 Church St,56307,-94.57027599999999,45.62908300000001,18,Public,72,6415,122,70.00,72,6023,119,68.20,74,5268,117,69.70
7675,Albert Lea Golf Club,Albert Lea,Minnesota,1701 Country Club Rd,56007,-93.390658,43.6705862,18,Semi-Private,,,,,71,5900,,,72,5600,,
7676,Green Lea Golf Course,Albert Lea,Minnesota,101 E Richway Dr,56007,-93.3681987,43.66433259999999,18,Public,72,6166,122,70.20,72,5970,120,69.30,72,5404,126,71.40
7677,Alexandria Golf Club,Alexandria,Minnesota,County Rd 42 No,56308,-95.3672813,45.9071454,18,Semi-Private,,,,,72,6482,129,71.10,73,5205,124,70.10
7678,Arrowwood Golf Club,Alexandria,Minnesota,2100 Arrowwood Ln,56308,-95.4073842,45.9228191,18,Public,,,,,70,5336,116,65.80,69,4913,119,69.00
7679,Lake Miltona Golf Club,Alexandria,Minnesota,12710 State Hwy 29 No,56308,-95.3894782,45.7765829,9,Public,,,,,36,3096,117,34.80,39,2879,124,36.00
7680,Woodland Creek Golf Course,Andover,Minnesota,3200 S Coon Creek Dr,55304,-93.3471689,45.227269,9,Public,,,,,36,3053,,,36,2533,,
7681,Southbrook Golf & Country Club,Annandale,Minnesota,511 Morrison Ave,55302,-94.14596619999999,45.2560424,18,Semi-Private,72,6527,119,70.60,72,6120,116,68.70,72,5137,112,69.10
7682,Albion Ridges Golf Course,Annandale,Minnesota,7771 20th St NW,55302,-94.048306,45.180102,18,Public,72,6555,129,71.10,72,6190,126,69.40,72,4728,115,67.70
7683,Whispering Pines Golf Club,Annandale,Minnesota,County Rd 6,55302,-94.0723122,45.2136818,18,Public,71,6421,131,70.90,71,6134,132,75.20,72,5003,118,68.90
7684,Greenhaven Golf Course,Anoka,Minnesota,2800 Greenhaven Rd,55303,-93.39888499999999,45.20907099999999,18,Public,71,6287,121,69.10,71,6069,119,68.20,73,5418,110,71.50
7685,Appleton Golf Club,Appleton,Minnesota,331 E Wyman Ave,56208,-96.01181989999999,45.2065668,9,Public,36,3053,113,69.00,36,2985,111,68.40,36,2564,113,69.00
7686,Apple Valley Golf Course,Apple Valley,Minnesota,8661 140th St W,55124,-93.2418115,44.7512113,9,Public,,,,,32,1770,,,32,1770,,
7687,Valleywood Golf Course,Apple Valley,Minnesota,4851 125th St W,55124,-93.16117,44.771603,18,Public,71,6421,123,70.60,71,6116,121,68.90,72,5144,122,71.50
7688,Island Pine Golf Club,Atwater,Minnesota,1601 Wyoming Ave W,56209,-94.78798689999999,45.133447,18,Public,72,6850,117,71.90,72,6400,111,69.10,72,5300,114,69.00
7689,Meadow Greens Golf Course,Austin,Minnesota,Mower County 25,55912,-92.9739702,43.6680289,18,Public,69,5950,,,69,5420,,,69,4790,,
7690,Austin Country Club,Austin,Minnesota,28th St NE,55912,-92.92993539999999,43.6744018,18,Private,72,6520,127,71.30,72,6326,126,70.40,72,5425,128,71.30
7691,Ramsey Golf Club,Austin,Minnesota,Rural Route 1,55912,-92.97463669999999,43.6666296,18,Public,,,,,71,5987,118,67.60,72,5426,118,70.10
7692,Babbitt Golf Course,Babbitt,Minnesota,2806 Hwy 21,55706,-91.9804108,47.7140659,9,Semi-Private,35,3183,117,34.70,35,3022,114,34.00,36,2824,116,35.70
7693,Black Bear Golf Course,Backus,Minnesota,2898 16th St SW,56435,-94.48803629999999,46.7482404,9,Public,36,3346,125,35.50,36,3191,122,34.80,36,2565,110,34.40
7694,Twin Pines Golf Course,Bagley,Minnesota,Route 1,56621,-95.3983573,47.5218054,9,Public,,,,,36,3162,,,38,2779,,
7695,Willow Creek Municipal Golf Course,Barnesville,Minnesota,Route 1,56514,-96.42001259999999,46.6533237,9,Public,36,2831,,,36,2783,,,36,2407,,
7696,Balmoral Golf Course,Battle Lake,Minnesota,Route 3,56515,-95.7136582,46.2805162,18,Public,72,6144,120,69.30,72,6004,119,68.70,72,5372,120,71.20
7697,Oak Harbor Golf Course,Baudette,Minnesota,Rural Route 1,56623,-94.59992989999999,48.7124736,9,Semi-Private,,,,,36,3241,127,38.10,37,2733,115,35.30
7698,Pine Meadows Golf Course,Baxter,Minnesota,500 Golf Course Dr,56425,-94.2393283,46.3589242,18,Semi-Private,72,6372,130,71.50,72,5929,127,69.50,72,4749,124,68.30
7699,White/Blue at Pebble Creek Country Club,Becker,Minnesota,14000 Club House Dr,55308,-93.8649339,45.4040958,9,Public,36,3360,126,36.10,36,3100,121,34.80,36,2765,126,35.30
7700,Blue/Red at Pebble Creek Country Club,Becker,Minnesota,14000 Club House Dr,55308,-93.8649339,45.4040958,9,Public,36,3297,129,72.40,36,2969,124,70.10,36,2539,125,71.10
7701,Red/White at Pebble Creek Country Club,Becker,Minnesota,14000 Club House Dr,55308,-93.8649339,45.4040958,9,Public,36,3460,129,36.60,36,3255,125,35.55,36,2835,126,36.45
7702,Valley View Golf Club,Belle Plaine,Minnesota,23795 Laredo Ave,56011,-93.75272299999999,44.602688,18,Semi-Private,70,6301,121,70.10,71,5962,117,68.50,71,4921,113,68.40
7703,Greenwood Golf Course,Bemidji,Minnesota,1361 Swenson Rd NE,56601,-94.7030868,47.4768867,18,Public,,,,,58,3008,,,58,3008,,
7704,Maple Ridge Golf Course,Bemidji,Minnesota,Route 10,56601,-94.88692139999999,47.4776391,9,Public,32,2133,,,32,1936,,,32,1676,,
7705,Bemidji Town & Country Club,Bemidji,Minnesota,Birchmont Beach Rd,56601,-94.6505674,47.5410511,18,Semi-Private,72,6535,127,71.80,72,6210,124,70.30,72,5058,120,69.10
7706,Castle Highlands Golf Course,Bemidji,Minnesota,Route 5,56601,-94.8826861,47.471573,18,Semi-Private,70,5246,111,65.80,70,5124,110,65.20,70,4448,112,65.50
7707,Benson Golf Club,Benson,Minnesota,2222 Atlantic Ave,56215,-95.61283759999999,45.3187515,18,Public,72,6360,129,70.70,72,6059,126,69.50,72,4853,116,68.60
7708,Edge of the Wilderness Golf Course,Bigfork,Minnesota,1 mile E of Bigfork,56628,-93.6540847,47.7443867,9,Semi-Private,36,3019,104,33.70,36,2963,104,33.40,38,2685,110,34.70
7709,Carefree Country Club,Big Lake,Minnesota,12055 185th Ave SE,55309,-93.7715231,45.3967235,18,Private,,,,,60,3892,88,59.20,62,3536,89,60.10
7710,Giants Ridge Golf & Ski Resort,Biwabik,Minnesota,County Rd 138,55708,-92.3005392,47.5701777,18,Resort,,,,,72,6930,,,72,6112,,
7711,Blackduck Municipal Golf Course,Blackduck,Minnesota,Lake Rd,56630,-94.5617008,47.72958149999999,9,Public,,,,,36,3029,101,34.00,38,2678,114,36.40
7712,Blooming Prairie Country Club,Blooming Prairie,Minnesota,Hwy 218 No,55917,-93.0493156,43.8664567,9,Semi-Private,36,3026,121,34.30,36,2849,,,37,2554,113,34.80
7713,The Short at Hyland Greens Golf Course,Bloomington,Minnesota,10100 Normandale Blvd,55437,-93.354404,44.820681,9,Public,,,,,27,1159,,,27,1159,,
7714,Dwan Golf Club,Bloomington,Minnesota,3301 W 110th St,55431,-93.3248145,44.8039166,18,Public,68,5485,110,64.80,68,5275,108,64.40,68,4518,108,65.00
7715,The Long at Hyland Greens Golf Course,Bloomington,Minnesota,10100 Normandale Blvd,55437,-93.354404,44.820681,9,Public,,,,,27,1438,,,27,1438,,
7716,Minnesota Valley Country Club,Bloomington,Minnesota,6300 Auto Club Rd,55438,-93.363095,44.79310100000001,18,Private,73,6755,139,73.80,73,6368,132,71.20,74,5254,126,70.30
7717,Pine Beach West at Madden's on Gull Lake,Brainerd,Minnesota,11266 Pine Beach Peninsula,56401,-94.3758079,46.3963602,18,Resort,,,,,67,5070,103,64.00,67,4478,107,66.70
7718,Social Nine at Madden's on Gull Lake,Brainerd,Minnesota,11266 Pine Beach Peninsula,56401,-94.3758079,46.3963602,9,Resort,,,,,28,1341,,,28,1341,,
7719,The Classic at Madden's on Gull Lake,Brainerd,Minnesota,11266 Pine Beach Peninsula,56401,-94.3758079,46.3963602,18,Resort,72,7109,139,75.30,72,6709,137,73.30,72,5840,134,74.50
7720,"One/Two at Legacy Courses at Craguns, The",Brainerd,Minnesota,11000 Craguns Dr,56401,-94.3702781,46.38972099999999,18,Resort,72,6879,145,73.70,72,6373,140,71.50,72,5250,131,71.20
7721,"One/Three at Legacy Courses at Craguns, The",Brainerd,Minnesota,11000 Craguns Dr,56401,-94.3702781,46.38972099999999,18,Resort,72,6689,145,73.70,72,6149,140,71.50,72,4910,131,71.20
7722,"Two/Three at Legacy Courses at Craguns, The",Brainerd,Minnesota,11000 Craguns Dr,56401,-94.3702781,46.38972099999999,18,Resort,72,6784,145,73.70,72,6296,140,71.50,72,5118,131,71.20
7723,Pine Beach East at Madden's on Gull Lake,Brainerd,Minnesota,11266 Pine Beach Peninsula,56401,-94.3758079,46.3963602,18,Resort,,,,,72,5956,111,67.90,72,5353,116,70.90
7724,Traditional at Breezy Point Golf Course,Breezy Point,Minnesota,Hwy 11 Breezy Point Resort,56472,-94.208694,46.58978,18,Resort,,,,,68,5192,114,62.90,72,5127,111,65.50
7725,Deacon's Lodge,Breezy Point,Minnesota,HC 83 Weavers Point Rd,56472,-94.20744069999999,46.60239199999999,18,Public,72,6964,128,73.80,72,6541,124,71.90,72,4766,114,67.60
7726,White Birch at Breezy Point Golf Course,Breezy Point,Minnesota,Hwy 11 Breezy Point Resort,56472,-94.208694,46.58978,18,Resort,72,6342,115,70.60,72,5852,112,68.80,71,4711,123,72.80
7727,Centerbrook Golf Course,Brooklyn Center,Minnesota,5500 N Lilac Dr,55430,-93.3132828,45.0545865,9,Public,27,1497,,,27,1389,,,28,1299,,
7728,Brookland Executive Nine Golf Course,Brooklyn Park,Minnesota,8232 Regent Ave No,55443,-93.34466499999999,45.105574,9,Public,,,,,30,1849,85,29.50,30,1701,89,30.30
7729,Edinburgh USA Golf Course,Brooklyn Park,Minnesota,8700 Edinbrook Crossing,55443,-93.3270204,45.1124567,18,Public,72,6727,141,73.10,72,6335,137,71.30,72,5255,129,70.90
7730,Prairie View Community Golf,Brooten,Minnesota,1000 Crow Lake St,56316,-95.12169639999999,45.496833,9,Semi-Private,,,,,36,3078,119,34.40,36,2662,122,34.50
7731,Buffalo Heights Golf Course,Buffalo,Minnesota,905 Hwy 25 S,55313,-93.8707079,45.161144,9,Semi-Private,,,,,35,3192,123,35.30,37,2610,119,35.20
7732,Oakdale Country Club,Buffalo Lake,Minnesota,Route 2,55314,-94.6169333,44.7371841,18,Semi-Private,72,6627,115,70.30,72,6372,112,69.10,72,5233,113,68.40
7733,Birnamwood Public Golf Course,Burnsville,Minnesota,12424 Parkwood Dr,55337,-93.25994730000001,44.7787519,9,Public,,,,,27,1267,,,27,1267,,
7734,Orchard Gardens Golf Course,Burnsville,Minnesota,1020 W 155th St,55306,-93.29361709999999,44.7226841,9,Semi-Private,,,,,27,1570,74,,30,1570,74,
7735,Macal Grove Country Club,Caledonia,Minnesota,Hwy 44,55921,-91.504526,43.6360673,9,Semi-Private,36,3203,,,36,3111,,,38,2868,,
7736,Purple Hawk Country Club,Cambridge,Minnesota,Hwy 65,55008,-93.2167253,45.562622,18,Semi-Private,72,6680,132,72.30,72,6353,129,70.90,74,5748,131,73.50
7737,Canby Golf Club,Canby,Minnesota,Rural Route 3,56220,-96.2764335,44.7088525,9,Semi-Private,,,,,36,3275,,,36,2728,,
7738,The Lynx at Elmdale Hills Golf Course,Cannon Falls,Minnesota,26161 Nicoali Ave,55009,-92.81249059999999,44.56947359999999,9,Public,30,1985,84,28.90,30,1869,82,28.30,30,1608,81,28.50
7739,The Tiger at Elmdale Hills Golf Course,Cannon Falls,Minnesota,26161 Nicoali Ave,55009,-92.81249059999999,44.56947359999999,18,Public,73,6330,123,72.20,73,5995,118,70.10,73,4913,111,68.70
7740,Cannon Golf Club,Cannon Falls,Minnesota,8606 295th St E,55009,-92.93248439999999,44.5182448,18,Semi-Private,71,6157,127,69.50,71,5843,125,68.40,71,4988,125,70.10
7741,Pine Hill Golf Club,Carlton,Minnesota,1689 County Rd 61,55718,-92.4941042,46.6514906,9,Public,,,,,31,2000,95,29.10,30,1500,78,28.00
7742,Sandtrap Golf Course,Cass Lake,Minnesota,Route 3,56633,-94.6043207,47.3793942,9,Public,,,,,36,3019,,,36,3019,,
7743,Woods at Viking Meadows Golf Club,Cedar,Minnesota,1788 Viking Blvd NE,55011,-93.2296519,45.3163173,9,Public,,,,,30,1655,93,28.50,30,1554,89,29.60
7744,Hidden Haven Country Club,Cedar,Minnesota,20520 NE Polk St,55011,-93.2476882,45.341896,18,Semi-Private,,,,,71,5806,119,67.70,71,4999,111,64.10
7745,Meadows at Viking Meadows Golf Club,Cedar,Minnesota,1788 Viking Blvd NE,55011,-93.2296519,45.3163173,18,Public,72,6364,124,70.60,72,6138,122,69.60,73,5534,121,71.40
7746,Chaska Town Course,Chaska,Minnesota,3000 Town Course Dr,55318,-93.6309474,44.8297774,18,Public,72,6817,125,73.40,72,6382,121,71.40,72,4853,112,69.00
7747,Bluff Creek Golf Course,Chaska,Minnesota,1025 Creekwood St,55318,-93.5503279,44.82262799999999,18,Public,70,6359,119,70.40,70,6234,118,69.80,76,5785,125,73.20
7748,Chaska Par da,Chaska,Minnesota,1207 Hazeltine Blvd,55318,-93.6001325,44.8360936,9,Public,,,,,30,1648,,,30,1436,,
7749,Dahlgreen Golf Club,Chaska,Minnesota,6940 Dahlgreen Rd,55318,-93.69937069999999,44.7697142,18,Semi-Private,72,6761,132,72.40,72,6527,130,71.40,72,5108,124,70.40
7750,Hazeltine National Golf Club,Chaska,Minnesota,1900 Hazeltine Blvd,55318,-93.5908194,44.833729,18,Private,72,7010,144,74.70,72,6204,137,71.00,72,5700,134,74.00
7751,Chosen Valley Country Club,Chatfield,Minnesota,1801 Main St S,55923,-92.1717723,43.8351206,9,Semi-Private,,,,,35,2933,109,33.40,35,2605,109,34.40
7752,KateHaven Golf Course,Circle Pines,Minnesota,8791 Lexington Ave NE,55014,-93.16108299999999,45.12967099999999,9,Public,,,,,30,1695,80,27.90,27,1302,76,26.90
7753,Chomonix Golf Course,Circle Pines,Minnesota,646 Sandpiper Dr,55014,-93.10392689999999,45.1606787,18,Public,72,6586,128,72.20,72,6325,125,70.90,72,5445,125,72.30
7754,Clarks Grove Golf Course,Clarks Grove,Minnesota,Old Hwy 65,56016,-93.322453,43.7643441,9,Semi-Private,,,,,30,1566,98,26.80,30,1566,101,28.00
7755,Travelers Country Club on the Mississippi,Clear Lake,Minnesota,8013 County Rd 8,55319,-93.9945815,45.4105218,9,Private,,,,,27,3176,81,27.50,27,3086,82,28.50
7756,Eagle Trace Golfers Club,Clearwater,Minnesota,1100 Main St,55320,-94.04263279999999,45.40936199999999,18,Semi-Private,70,5959,119,69.20,70,5661,117,67.80,70,5059,123,70.20
7757,Bentwood Municipal Golf Course,Climax,Minnesota,Hwy 75 No,56523,-96.8170222,47.6077515,9,Semi-Private,,,,,36,2752,112,33.00,36,2500,112,34.10
7758,Big Lake Golf Club,Cloquet,Minnesota,780 Cary Rd,55720,-92.6152228,46.7169128,9,Public,,,,,27,2000,111,28.80,27,2000,113,28.90
7759,Cloquet Country Club,Cloquet,Minnesota,400 Country Club Dr,55720,-92.4853236,46.7220861,9,Private,,,,,36,3162,130,35.50,37,2769,138,38.50
7760,Ruttger's Sugarbrooke Golf Club,Cohasset,Minnesota,1000 Otis Ln,55721,-93.654703,47.1644792,18,Resort,71,6545,124,72.20,71,6182,120,70.80,71,5032,119,70.00
7761,Cokato Town & Country Club,Cokato,Minnesota,Hwy 12 W,55321,-94.1900743,45.0799933,9,Semi-Private,36,3211,119,35.10,36,3062,117,34.40,37,2771,124,36.00
7762,Rich Spring Golf Club,Cold Spring,Minnesota,17467 Fairway Circle,56320,-94.4707103,45.44602039999999,18,Public,72,6517,129,71.10,72,6246,127,69.90,72,5336,118,70.40
7763,River Oaks Golf Course,Cold Spring,Minnesota,23742 County Rd 2,56320,-94.4203623,45.46867590000001,18,Public,,,,,70,5964,117,69.50,70,5016,,
7764,Eagle Ridge Golf Course,Coleraine,Minnesota,One Green Way,55722,-93.4332044,47.2777673,18,Public,72,6772,126,71.80,72,6254,121,69.40,72,5220,114,69.20
7765,Vermilion Fairways Golf Club,Cook,Minnesota,2407 Vermilion Dr,55723,-92.6647089,47.8973295,9,Semi-Private,,,,,36,3245,110,34.90,39,2974,111,36.30
7766,East/West at Bunker Hills Golf Course,Coon Rapids,Minnesota,Hwy 242 & Foley Blvd,55448,-121.8291052,44.2503233,18,Public,72,6901,132,73.50,72,6535,129,71.80,73,5809,131,73.90
7767,North/West at Bunker Hills Golf Course,Coon Rapids,Minnesota,Hwy 242 & Foley Blvd,55448,-121.8291052,44.2503233,18,Public,72,6938,133,73.40,72,6573,130,71.80,73,5779,134,73.30
7768,North/East at Bunker Hills Golf Course,Coon Rapids,Minnesota,Hwy 242 & Foley Blvd,55448,-121.8291052,44.2503233,18,Public,72,6799,132,72.50,72,6428,129,70.80,72,5618,131,72.20
7769,Executive at Bunker Hills Golf Course,Coon Rapids,Minnesota,Hwy 242 & Foley Blvd,55448,-121.8291052,44.2503233,9,Public,,,,,32,2000,,30.70,32,1780,,30.90
7770,Shamrock Golf Club,Corcoran,Minnesota,19625 Larkin Rd,55340,-93.533968,45.0837519,18,Semi-Private,72,6423,111,69.80,72,6171,109,68.60,74,5793,115,72.10
7771,Mississippi Dunes Golf Links,Cottage Grove,Minnesota,10351 Grey Cloud Trl,55016,-92.9726669,44.7925191,18,Semi-Private,72,6694,135,73.10,72,6366,132,71.60,72,4954,115,69.90
7772,River Oaks Municipal Golf Course,Cottage Grove,Minnesota,11099 Hwy 61 S,55016,-92.8873567,44.788359,18,Public,71,6483,131,71.40,71,6018,127,69.50,71,5224,128,70.50
7773,Cottonwood Country Club,Cottonwood,Minnesota,233 Shoreview Dr,56229,-95.689917,44.610261,9,Semi-Private,36,3423,,,36,3244,121,36.10,36,2832,126,38.40
7774,Minakwa Country Club,Crookston,Minnesota,Fisher Ave,56716,-96.59470019999999,47.7892951,9,Semi-Private,36,2825,114,33.50,36,2707,112,33.00,37,2437,117,34.20
7775,Crosswoods Golf Course,Crosslake,Minnesota,County Rd 3,56442,-94.09052799999999,46.675954,18,Public,68,5236,103,65.40,68,5078,102,64.70,68,4445,108,65.00
7776,Orono Golf Course,Crystal Bay,Minnesota,265 Orono Orchard Rd,55323,-93.5586161,44.9743557,9,Public,,,,,33,2139,99,30.70,33,2139,99,30.70
7777,Lakeway Golf Course,Dalton,Minnesota,Route 1,56324,-95.8472109,46.1401657,9,Semi-Private,,,,,35,2580,,,35,2361,,
7778,Dawson Golf Club,Dawson,Minnesota,15th St & Locust Ave,56232,-95.9068406,36.1412662,9,Semi-Private,,,,,35,2837,112,33.40,35,2621,114,34.80
7779,Hayden Hills Executive Golf Course,Dayton,Minnesota,13150 Deerwood Ln No,55327,-93.4272615,45.1924888,18,Public,,,,,62,3269,69,54.20,62,3269,74,56.00
7780,French Lake Executive Course,Dayton,Minnesota,17500 County Rd 81,55369,-93.502924,45.1608589,9,Public,,,,,29,1507,,26.20,29,1307,,26.00
7781,Daytona Country Club,Dayton,Minnesota,14730 Lawndale Ln No,55327,-93.50041999999999,45.222988,18,Public,72,6733,125,71.60,72,6352,121,69.80,73,5365,117,71.00
7782,Blueberry Hills Country Club,Deer River,Minnesota,Golf Course Rd,56636,-93.78984249999999,47.3608112,9,Public,,,,,36,3121,110,,38,2668,123,
7783,Lodge Nine at Ruttger's Bay Lake Lodge,Deerwood,Minnesota,Rural Route 2,56444,-93.89998059999999,46.4741399,9,Resort,,,,,34,2285,95,30.30,34,2177,95,30.20
7784,Cuyuna Country Club,Deerwood,Minnesota,Hwy 210,56444,-93.89973239999999,46.4737026,18,Semi-Private,72,6407,132,71.90,72,6209,131,71.00,72,5749,138,74.20
7785,The Lakes at Ruttger's Bay Lake Lodge,Deerwood,Minnesota,Rural Route 2,56444,-93.89998059999999,46.4741399,18,Resort,72,6626,,,72,6414,131,72.20,72,5052,124,69.70
7786,Dellwood Hills Golf Club,Dellwood,Minnesota,29 E Hwy 96,55110,-92.977249,45.0963843,18,Private,72,7118,135,74.80,72,6833,132,73.60,72,5584,124,73.60
7787,White Bear Yacht Club,Dellwood,Minnesota,Dellwood Ave,55110,-92.97213269999999,45.0891096,18,Private,72,6471,137,72.50,72,6266,135,71.60,74,5633,134,73.60
7788,Lakeview at Detroit Country Club,Detroit Lakes,Minnesota,Rural Route 5,56501,-95.8453253,46.8171808,18,Semi-Private,,,,,64,4364,101,60.80,64,4038,103,62.90
7789,Guest at Wildflower Golf Course at Fair Hills Resort,Detroit Lakes,Minnesota,Rural Route 1,56501,-95.8453253,46.8171808,9,Resort,,,,,32,1735,89,28.40,32,1735,,
7790,Forest Hills RV & Golf Resort,Detroit Lakes,Minnesota,22931 185th St,56501,-95.9232507,46.8349917,18,Resort,72,6043,,,72,5751,,,72,4893,,
7791,Country Club at Detroit Country Club,Detroit Lakes,Minnesota,Rural Route 5,56501,-95.8453253,46.8171808,18,Semi-Private,,,,,71,5912,122,69.20,71,5511,129,72.30
7792,Ironman Golf Course,Detroit Lakes,Minnesota,Richwood Rd,56501,-95.8372866,46.8338454,18,Public,,,,,54,2824,79,53.40,54,2456,74,53.50
7793,Wildflower at Wildflower Golf Course at Fair Hills Resort,Detroit Lakes,Minnesota,Rural Route 1,56501,-95.8453253,46.8171808,18,Resort,72,7000,139,74.20,72,6551,135,72.10,72,5299,121,71.60
7794,Dodge Country Club,Dodge Center,Minnesota,US Hwy 14 W,55927,-92.8552042,44.0186804,9,Semi-Private,,,,,36,3000,,,36,2674,,
7795,Lake at Lester Park Golf Course,Duluth,Minnesota,1860 Lester River Rd,55804,-91.99819029999999,46.8502926,9,Public,72,3417,133,36.30,72,3168,127,35.00,72,2693,119,33.40
7796,Pike Lake Country Club,Duluth,Minnesota,4895 E Pike Lake Rd,55811,-92.3228571,46.8692315,9,Semi-Private,30,2154,,,30,2034,,,33,1621,,
7797,Middle Nine/Back Nine at Enger Park Golf Course,Duluth,Minnesota,1801 W Skyline Pkwy,55806,-92.1269935,46.7768907,18,Public,72,6363,125,70.90,72,6039,122,69.90,72,5383,125,71.50
7798,Back Nine/Front Nine at Enger Park Golf Course,Duluth,Minnesota,1801 W Skyline Pkwy,55806,-92.1269935,46.7768907,18,Public,72,6554,124,71.30,72,6210,122,69.90,72,5550,124,72.70
7799,Front Nine/Middle Nine at Enger Park Golf Course,Duluth,Minnesota,1801 W Skyline Pkwy,55806,-92.1269935,46.7768907,18,Public,72,6527,130,71.80,72,6145,124,68.80,72,5159,129,70.60
7800,Grandview Golf Club,Duluth,Minnesota,5665 Grandview Rd,55810,-92.2773969,46.715152,9,Public,,,,,36,2742,,,36,2742,,
7801,Front & Back at Lester Park Golf Course,Duluth,Minnesota,1860 Lester River Rd,55804,-91.99819029999999,46.8502926,18,Public,72,6371,118,70.80,72,6062,115,69.40,74,5582,111,67.70
7802,Northland Country Club,Duluth,Minnesota,3901 E Superior St,55804,-92.0483567,46.82555439999999,18,Private,71,6785,137,73.70,72,6490,135,72.40,75,5891,139,75.30
7803,Ridgeview Country Club,Duluth,Minnesota,700 W Redwing St,55803,-92.103584,46.847214,18,Private,70,6213,128,70.60,70,5949,126,69.40,71,5007,123,69.70
7804,Carriage Hills Country Club,Eagan,Minnesota,3535 Wescott Woodlands Dr,55123,-93.1366874,44.8287532,18,Public,,,,,71,5844,108,67.20,72,5015,,
7805,Parkview Golf Course,Eagan,Minnesota,1310 Cliff Rd,55123,-93.160471,44.789548,18,Public,,,,,63,4566,96,61.20,65,4133,99,63.80
7806,Green at Double Eagle Golf & Supper Club,Eagle Bend,Minnesota,3 County Rd,56446,-95.0366128,46.1540894,9,Semi-Private,36,3337,127,36.00,36,3167,124,35.30,36,2790,124,36.00
7807,Gold at Double Eagle Golf & Supper Club,Eagle Bend,Minnesota,3 County Rd,56446,-95.0366128,46.1540894,9,Semi-Private,37,3556,134,37.40,37,3421,132,36.80,37,2920,128,36.80
7808,Riverbend Golf Club,East Grand Forks,Minnesota,Hwy 2 E,56721,-96.97577650000001,47.91384619999999,9,Public,36,3143,119,71.50,36,3048,,,36,2878,,
7809,Valley Country Club,East Grand Forks,Minnesota,1800 21St St NW,56721,-97.0461639,47.9462118,18,Semi-Private,72,6210,118,69.60,72,6001,116,68.60,72,5261,116,70.60
7810,Bearpath Golf & Country Club,Eden Prairie,Minnesota,18100 Bearpath Trl,55347,-93.505847,44.8429913,18,Private,72,7030,140,74.20,72,6610,137,72.20,72,5776,141,73.70
7811,Bent Creek Golf Club,Eden Prairie,Minnesota,14490 Valley View Rd,55344,-93.4615671,44.8712864,18,Private,71,6405,127,71.70,71,6045,124,70.00,72,5456,128,72.10
7812,Cedar Hills Golf Course,Eden Prairie,Minnesota,9735 Eden Prairie Rd,55347,-93.4828239,44.826406,9,Public,,,,,28,1326,,,30,1326,,
7813,Olympic Hills Golf Club,Eden Prairie,Minnesota,10625 Mount Curve Rd,55347,-93.41283729999999,44.83147,18,Private,73,7033,140,74.10,73,6642,136,72.40,73,5469,129,72.10
7814,Hays/Clunie at Braemer Golf Course,Edina,Minnesota,6364 John Harris Dr,55439,-93.3844498,44.8673806,18,Public,71,6330,126,70.50,71,5972,126,68.80,72,4737,113,68.00
7815,Frederick S. Richards Course,Edina,Minnesota,7640 Parklawn Ave,55435,-93.3394629,44.8650232,9,Public,29,1786,,,29,1613,82,28.00,29,1385,82,26.70
7816,Clunie/Castle at Braemer Golf Course,Edina,Minnesota,6364 John Harris Dr,55439,-93.3844498,44.8673806,18,Public,72,6660,129,72.20,72,6401,127,71.00,73,4990,119,69.50
7817,Executive at Braemer Golf Course,Edina,Minnesota,6364 John Harris Dr,55439,-93.3844498,44.8673806,9,Public,,,,,29,1629,83,28.10,30,1458,85,28.70
7818,Castle/Hays at Braemer Golf Course,Edina,Minnesota,6364 John Harris Dr,55439,-93.3844498,44.8673806,18,Public,71,6697,125,71.90,71,6341,122,70.40,73,5043,118,69.10
7819,Edina Country Club,Edina,Minnesota,5100 Wooddale Ave,55424,-93.3404597,44.9108284,18,Private,72,6768,141,73.70,72,6440,138,72.20,73,4866,131,70.20
7820,Interlachen Country Club,Edina,Minnesota,6200 Interlachen Blvd,55436,-93.37732799999999,44.914084,18,Private,73,6779,142,73.00,73,6528,139,71.40,75,5896,137,75.30
7821,Tipsinah Mounds Golf Course,Elbow Lake,Minnesota,118 Golf Course Rd,56531,-95.8735509,46.0069008,18,Semi-Private,70,6219,116,69.70,70,6066,115,69.00,70,4909,109,68.00
7822,Elk River Country Club,Elk River,Minnesota,20015 Elk Lake Rd,55330,-93.5973575,45.3326127,18,Semi-Private,72,6480,121,71.10,72,6150,118,69.60,75,5610,122,72.30
7823,Pinewood Golf Course,Elk River,Minnesota,14000 182nd Ave NW,55330,-93.6284446,45.3012336,9,Public,,,,,30,1830,,,30,1830,,
7824,Minniowa Golf Club,Elmore,Minnesota,N Hwy 169,56027,-94.08814319999999,43.5049463,9,Semi-Private,35,3111,116,34.80,35,3049,115,34.50,37,2836,120,36.10
7825,Ely Golf Club,Ely,Minnesota,901 S Central Ave,55731,-91.8676976,47.8936043,9,Semi-Private,,,,,36,3182,116,34.90,37,3003,128,37.30
7826,Championship at Emily Greens Golf Course,Emily,Minnesota,Hist County Road 1 W,56447,-93.966442,46.7309066,9,Public,36,3294,126,35.70,36,3195,124,35.50,36,2820,128,36.10
7827,Executive at Emily Greens Golf Course,Emily,Minnesota,Hist County Road 1 W,56447,-93.966442,46.7309066,9,Public,,,,,33,2000,,,33,2000,,
7828,Arrowhead Country Club,Emmons,Minnesota,Route 1 Arrowhead Rd,56029,-93.4756169,43.51393239999999,9,Public,,,,,36,3188,121,34.80,36,2563,121,36.10
7829,Oak Lake Golf Course,Erskine,Minnesota,Route 2,56535,-96.0091291,47.6688671,9,Semi-Private,,,,,35,2620,,,36,2555,,
7830,Eveleth Municipal Golf Course,Eveleth,Minnesota,Old Hwy 53 & Golf Course Rd,55734,-122.630596,38.95373300000001,9,Public,,,,,36,3162,124,35.10,37,2638,128,35.00
7831,Minnetonka Country Club,Excelsior,Minnesota,24575 Smithtown Rd,55331,-93.5941948,44.89692650000001,18,Private,72,6431,139,72.40,72,6230,137,71.50,74,5518,140,74.70
7832,Fort Ridgely State Park Golf Course,Fairfax,Minnesota,Route 1,55332,-94.71931750000002,44.5272559,9,Public,,,,,35,2881,109,34.10,35,2670,114,35.20
7833,Mayflower Country Club,Fairfax,Minnesota,Hwy 4 S,55332,-94.7106726,44.5271596,9,Semi-Private,,,,,35,3062,107,34.20,36,2599,115,36.90
7834,Rose Lake Golf Club,Fairmont,Minnesota,Rural Route 2,56031,-94.46108319999999,43.65217750000001,18,Semi-Private,71,6196,121,69.60,71,6001,119,68.70,71,5276,120,70.30
7835,Interlaken Golf Club,Fairmont,Minnesota,277 Amber Lake Dr,56031,-94.4676392,43.60836399999999,18,Semi-Private,72,6436,127,70.90,72,6067,123,69.20,72,5179,116,70.20
7836,Rolling Green Fairways,Fairmont,Minnesota,1422 Oak Beach Dr,56031,-94.4639443,43.6350345,9,Public,,,,,27,1176,,,27,1176,,
7837,University of Minnesota Les Bolstad Golf Course,Falcon Heights,Minnesota,2275 Larpenteur Ave W,55113,-93.1961405,44.9921744,18,Public,,,,,71,6108,119,69.50,75,5648,125,72.90
7838,Straight River Golf Course,Faribault,Minnesota,Cates Ave/County Rd 19,55021,-93.2335129,44.2490898,18,Public,,,,,59,3410,,,59,2830,,
7839,Faribault Golf & Country Club,Faribault,Minnesota,1700 NW 17th St,55021,-93.297797,44.3105819,18,Semi-Private,72,6425,129,70.30,72,6235,127,69.40,73,5468,124,71.50
7840,Golf at the Legacy,Faribault,Minnesota,1515 Shumway Ave,55021,-93.255353,44.30899,18,Public,72,6416,127,71.70,72,6002,123,69.10,72,5021,118,69.20
7841,Southern Hills Golf Course,Farmington,Minnesota,18950 Chippendale Ave,55024,-93.1365562,44.6767532,18,Public,71,6314,126,70.50,71,6073,124,69.40,71,4970,116,68.70
7842,Fountain Valley Golf Club,Farmington,Minnesota,2830 220th St W,55024,-93.121551,44.626951,18,Public,72,6560,,,72,6318,,,72,5852,,
7843,Pebble Lake Golf Club,Fergus Falls,Minnesota,County 82 S,56537,-95.73444930000001,46.0574018,18,Public,72,6742,128,72.30,72,6452,125,71.10,74,5549,126,72.10
7844,Sandhill River Golf Club,Fertile,Minnesota,Hwy 32 S,56540,-96.28048129999999,47.536095,9,Semi-Private,36,3075,115,34.70,36,2972,113,34.20,36,2547,110,34.50
7845,Fifty Fore Golf Bar & Grill,Fifty Lakes,Minnesota,County 1 and 3,56448,-94.0500793,46.7378273,9,Public,,,,,30,1731,,,30,1731,,
7846,Stone Creek Golf Club,Foley,Minnesota,13060 65th St NE,56329,-93.89293789999999,45.6624992,9,Public,36,3090,,,36,2947,,,36,2510,,
7847,Castlewood Golf Course,Forest Lake,Minnesota,7050 Scandia Trl No,55025,-92.9621256,45.262003,9,Public,36,3166,,,36,3043,,,36,2656,,
7848,Forest Hills Golf Club,Forest Lake,Minnesota,7530 210th St No,55025,-92.9537127,45.2542846,18,Private,72,6542,133,71.80,72,6293,131,70.70,73,5417,127,71.40
7849,Fosston Golf Club,Fosston,Minnesota,Hwy 2 W,56542,-95.75167169999999,47.5761382,9,Public,,,,,36,3215,114,35.10,37,2774,119,35.50
7850,Frazee Golf Course,Frazee,Minnesota,Rural Route 1,56544,-95.7008776,46.72801459999999,9,Public,,,,,35,2504,104,32.10,35,2347,109,33.60
7851,Maple Hills Golf Club,Frazee,Minnesota,Route 4 Off Hwy 10,56544,-93.0287982,44.9345469,9,Public,36,3023,95,33.20,35,2824,94,33.00,35,2333,99,34.00
7852,Oakview Golf Club,Freeborn,Minnesota,County Rd 8,56032,-93.5641078,43.76579,9,Semi-Private,,,,,36,3002,125,34.50,37,2890,122,36.70
7853,Mount Frontenac Golf Course,Frontenac,Minnesota,Hwy 61,55026,-92.356832,44.51101440000001,18,Public,71,6160,124,70.20,71,5932,120,68.80,71,4882,120,69.10
7854,Town & Country Golf Course,Fulda,Minnesota,Hwy 59,56131,-95.5925113,43.8705009,9,Public,36,3319,,,36,3092,,,36,2763,,
7855,Garrison Creek Golf Course,Garrison,Minnesota,Hwy 169,56450,-93.8246202,46.2942846,9,Public,,,,,29,1317,,,29,1317,,
7856,Mille Lacs Golf Resort,Garrison,Minnesota,18517 Captive Lake Rd,56450,-93.79421889999999,46.225483,18,Resort,71,6291,119,69.70,71,6067,115,69.20,71,5041,126,74.50
7857,Eshquaguma Country Club,Gilbert,Minnesota,6469 White Pine Ln,55741,-92.3648226,47.4618783,9,Private,,,,,36,3180,,35.20,38,2910,,36.00
7858,Glencoe Country Club,Glencoe,Minnesota,1325 E 1St St,55336,-94.1442544,44.7610467,18,Semi-Private,71,6074,112,69.20,71,5710,109,67.80,71,4940,113,68.00
7859,Minnewaska Golf Course,Glenwood,Minnesota,Hwy 28/29 Golf Course Rd,56334,-95.4172652,45.6562221,18,Semi-Private,72,6483,122,70.70,72,6212,120,69.70,73,5292,123,71.10
7860,Pezhekee National Golf Course,Glenwood,Minnesota,20000 S Lakeshore Dr,56334,-95.410866,45.6140649,18,Resort,72,6454,119,70.80,72,6100,116,69.60,73,5156,122,71.50
7861,Ponderosa Golf Club,Glyndon,Minnesota,Route 2,56547,-96.128053,47.6961065,11,Public,36,3073,122,,36,2884,118,,36,2529,119,
7862,Par d at Theodore Wirth Golf Course,Golden Valley,Minnesota,1301 Wirth Pkwy,55422,-93.3233133,44.9923964,9,Public,,,,,27,1240,58,,27,1240,65,
7863,Brookview Golf Course,Golden Valley,Minnesota,200 Brookview Pkwy,55426,-93.38565589999999,44.9759861,18,Public,72,6369,127,70.30,72,6109,124,69.10,72,5463,124,71.40
7866,Graceville Golf Club,Graceville,Minnesota,Toqua Lake Rd Off Hwy 75,56240,-96.4469123,45.5633038,9,Semi-Private,,,,,36,3029,112,34.30,36,2636,110,35.00
7867,Gunflint Hills Municipal Golf Club,Grand Marais,Minnesota,Gunflint Trl,55604,-90.3318472,47.7669525,9,Public,,,,,34,2630,,,35,2353,,
7869,Pokegama Golf Course,Grand Rapids,Minnesota,3910 Golf Course Rd,55744,-93.57406879999999,47.204399,18,Public,71,6481,121,70.30,71,6105,117,68.50,72,5046,116,67.70
7870,Granite Falls Golf Club,Granite Falls,Minnesota,Hwy 67 E,56241,-95.5458455,44.80576749999999,9,Semi-Private,36,2967,109,67.10,36,2880,98,65.60,36,2707,121,71.40
7871,Two River Golf Course,Hallock,Minnesota,Two Rivers Golf Course Rd,56728,-96.9306462,48.76827060000001,9,Semi-Private,,,,,36,2935,,32.20,38,2637,,34.30
7872,Gold at Majestic Oaks Golf Club,Ham Lake,Minnesota,701 Bunker Lake Blvd,55304,-93.24983209999999,45.223958,18,Public,72,6396,123,71.20,72,5879,118,68.80,72,4848,120,68.40
7873,The Executive at Majestic Oaks Golf Club,Ham Lake,Minnesota,701 Bunker Lake Blvd,55304,-93.24983209999999,45.223958,9,Public,,,,,29,1795,73,28.10,30,1750,81,29.50
7874,Platinum at Majestic Oaks Golf Club,Ham Lake,Minnesota,701 Bunker Lake Blvd,55304,-93.24983209999999,45.223958,18,Public,72,7013,129,73.90,72,6561,125,71.40,72,5268,126,71.60
7875,Harmony Golf Club,Harmony,Minnesota,535 Fourth St NE,55939,-92.0040027,43.5583268,9,Semi-Private,36,3018,,,36,2904,102,33.60,36,2712,112,35.00
7876,Afton Alps Golf Course,Hastings,Minnesota,6600 Peller Ave S,55033,-92.7907998,44.8544535,18,Semi-Private,,,,,72,5528,,,72,4866,,
7877,Hastings Country Club,Hastings,Minnesota,2015 Westview Dr,55033,-92.875205,44.7259839,18,Private,72,6720,129,72.40,72,6385,126,71.10,72,5533,131,72.80
7878,Hidden Greens Golf Course,Hastings,Minnesota,12977 200th St E,55033,-92.84581879999999,44.6596828,18,Public,,,,,72,5954,118,68.80,72,5379,123,70.60
7879,Bellwood Oaks Golf Course,Hastings,Minnesota,13239 210th St E,55033,-92.83802179999999,44.6492963,18,Public,73,6775,123,72.50,73,6507,121,71.20,74,5707,126,72.30
7880,Hawley Golf & Country Club,Hawley,Minnesota,Hwy 10,56549,-96.31658619999999,46.8772477,18,Public,71,6106,119,68.60,71,5768,115,67.10,72,5082,113,68.60
7881,Holiday Park Golf Course,Hayward,Minnesota,Route 3,56043,-93.2440944,43.650514,9,Public,,,,,27,1236,,,27,1236,,
7882,Lake Hendricks Golf Club,Hendricks,Minnesota,W On Lincoln County Hwy 17,56136,-96.4520265,44.51859700000001,9,Semi-Private,36,3103,99,33.10,36,2918,98,32.90,36,2788,107,35.00
7883,Hibbing Municipal Golf Course,Hibbing,Minnesota,16th St & 7th Ave E,55746,-104.9904227,39.7438619,9,Public,,,,,34,2657,,,36,2657,,
7884,Mesaba Country Club,Hibbing,Minnesota,415 E 51 St,55746,-92.935656,47.378998,18,Semi-Private,72,6792,131,73.10,72,6573,129,72.00,74,5747,130,74.10
7885,Quadna Golf Course,Hill City,Minnesota,100 Quadna Rd,55748,-93.5921147,46.975916,9,Public,,,,,35,2972,122,34.70,35,2470,125,35.30
7886,Grand National Golf Club,Hinckley,Minnesota,300 Lady Luck Dr,55037,-92.91695729999999,46.0071544,18,Public,72,6894,137,73.60,72,6530,134,72.00,72,5100,122,69.60
7887,Red Rock Golf Course,Hoffman,Minnesota,County Rd 25,56339,-95.7386133,45.8607302,9,Public,,,,,36,2880,115,34.50,36,2450,118,33.50
7888,Meadowbrook Golf Club,Hopkins,Minnesota,201 Meadowbrook Rd,55343,-93.37370399999999,44.921011,18,Public,72,6457,130,71.20,72,6156,127,70.70,72,4811,119,67.40
7889,Oak Ridge Country Club,Hopkins,Minnesota,700 Oak Ridge Rd,55305,-93.40615299999999,44.935211,18,Private,70,6569,138,72.60,70,6307,136,71.40,73,5729,137,74.20
7890,Valley High Country Club,Houston,Minnesota,Route 2,55943,-91.5684764,43.7632995,18,Public,71,6168,113,68.30,71,5899,110,67.00,75,5289,109,69.20
7891,"Greens at Howard Lake, The",Howard Lake,Minnesota,5055 County Rd 7 SW,55349,-94.0553219,45.0755576,9,Public,36,3313,123,35.60,36,3100,119,34.60,36,2572,114,34.30
7893,Crow River Country Club,Hutchinson,Minnesota,915 Colorado St NW,55350,-94.39635009999999,44.9050911,18,Private,71,6507,118,70.90,71,5847,112,68.00,71,5443,114,69.70
7894,Falls Country Club,International Falls,Minnesota,Golf Course Rd,56649,-93.455953,48.57486,18,Semi-Private,72,6632,122,71.90,72,6233,118,70.00,72,5141,115,69.40
7895,The Executive at Inver Wood Golf Course,Inver Grove Heights,Minnesota,1850 70th St E,55077,-93.0697103,44.8460293,9,Public,30,1857,82,28.30,30,1631,78,27.30,30,1444,80,27.60
7896,Arbor Pointe Golf Club,Inver Grove Heights,Minnesota,8919 Cahill Ave E,55076,-93.04208159999999,44.8247057,9,Public,31,2079,107,39.90,31,1900,104,30.90,31,1608,97,28.00
7897,Eighteen Hole at Inver Wood Golf Course,Inver Grove Heights,Minnesota,1850 70th St E,55077,-93.0697103,44.8460293,18,Public,72,6724,140,72.60,72,6194,135,70.20,72,5175,128,70.70
7898,Fiddlestix Golf Course,Isle,Minnesota,1081 395th St,56342,-93.4341608,46.1179217,18,Public,71,6078,122,69.30,71,5705,116,67.90,71,5078,124,69.50
7899,Jackson Golf Club,Jackson,Minnesota,N Hwy 71,56143,-94.9874609,43.6237585,9,Semi-Private,,,,,37,3275,,36.30,38,2904,,37.00
7900,Loon Lake Public Golf Course,Jackson,Minnesota,Route 3,56143,-94.9886022,43.6207915,9,Public,36,3092,117,34.60,36,2991,115,34.10,36,2514,110,34.00
7901,Prairie Ridge Golf Course,Janesville,Minnesota,2000 N Main St,56048,-93.70928280000001,44.1276579,9,Public,36,3370,131,36.50,36,2949,123,34.60,36,2631,121,35.80
7902,Zumbro Valley Golf Club,Kasson,Minnesota,County Rd 15,55944,-92.71875820000001,44.0569638,9,Semi-Private,36,2740,,,36,2592,103,32.20,37,2302,103,32.80
7903,Kenyon Country Club,Kenyon,Minnesota,Hwy 56 No,55946,-92.98533160000001,44.2721714,9,Semi-Private,,,,,34,2656,107,32.60,36,2498,,35.10
7904,Kimball Golf Club,Kimball,Minnesota,11823 County Rd 150,55353,-94.2967896,45.2953554,18,Semi-Private,72,6652,124,72.00,72,6389,122,70.70,72,5323,120,70.80
7905,Pine Creek Golf Course,La Crescent,Minnesota,3815 N Pine Creek Rd,55947,-91.36384149999999,43.8326416,9,Public,,,,,35,2949,98,32.30,38,2811,109,33.70
7906,Lake Pepin Golf Course,Lake City,Minnesota,Rural Route 4,55041,-92.2666914,44.4492982,9,Semi-Private,36,3379,126,36.00,36,3131,122,34.90,36,2698,115,35.40
7907,Lake City Country Club,Lake City,Minnesota,Route 2,55041,-93.3456707,47.1614656,9,Semi-Private,,,,,36,3023,,,38,2772,126,34.40
7908,Blue/White at Tartan Park Golf Course,Lake Elmo,Minnesota,11455 20th St No,55042,-92.8696966,44.9779394,18,Private,72,6855,127,72.10,72,6471,124,70.60,72,5580,127,71.60
7909,White/Red at Tartan Park Golf Course,Lake Elmo,Minnesota,11455 20th St No,55042,-92.8696966,44.9779394,18,Private,72,6690,128,71.90,72,6466,125,70.90,72,5486,124,71.40
7910,Cimarron Golf Course,Lake Elmo,Minnesota,901 Lake Elmo Ave No,55042,-92.8815364,44.96204110000001,9,Public,,,,,27,1460,,,27,1287,,
7911,Red/Blue at Tartan Park Golf Course,Lake Elmo,Minnesota,11455 20th St No,55042,-92.8696966,44.9779394,18,Private,72,6781,125,72.00,72,6423,121,70.30,72,5582,123,71.60
7912,Vallebrook Golf Club,Lakefield,Minnesota,101 Vallebrook Rd,56150,-95.163912,43.6871107,9,Public,,,,,34,2693,115,33.10,34,2072,99,31.30
7913,Green Valley Golf Course,Lake Park,Minnesota,Rural Route 2,56554,-96.0945002,46.8863481,9,Public,34,2814,,,34,2614,,,34,2191,,
7914,Crystal Lakes Golf Club,Lakeville,Minnesota,16725 Innisbrook Dr,55044,-93.2530982,44.7047654,18,Public,71,6306,128,70.70,71,5827,124,68.60,71,4805,116,68.50
7915,Heritage Links Golf Club,Lakeville,Minnesota,8075 Lucerne Blvd,55044,-93.35468399999999,44.633333,18,Public,71,6672,125,72.30,71,6320,121,70.70,71,5145,116,70.40
7916,Brackett's Crossing Country Club,Lakeville,Minnesota,17976 Judicial Rd,55044,-93.3139089,44.6861741,18,Private,71,6921,139,74.30,71,6551,136,72.70,71,5234,123,71.30
7917,Lancaster Riverside Golf Course,Lancaster,Minnesota,US Hwy 59 No,56735,-96.7992321,48.8582602,9,Public,36,3215,,,36,3095,,,36,2658,,
7918,Lanesboro Golf Club,Lanesboro,Minnesota,Parkway Ave,55949,-91.97696069999999,43.7152393,9,Semi-Private,,,,,35,2729,,,36,2566,,
7919,ShadowBrooke Golf Course,Lester Prairie,Minnesota,3192 State Hwy 7,55354,-94.0568278,44.9069212,18,Public,71,6349,118,69.90,71,6040,116,68.40,71,4906,123,73.60
7920,Le Sueur Country Club,Le Sueur,Minnesota,Rural Route 1,56058,-93.9113634,44.4598517,18,Semi-Private,70,6365,129,71.80,70,6117,126,70.60,72,5023,120,69.60
7921,Par d at Lewiston Country Club,Lewiston,Minnesota,Route 2 Hwy 14,55952,-89.74977729999999,43.1433245,9,Public,,,,,27,688,,,27,688,,
7922,Regulation at Lewiston Country Club,Lewiston,Minnesota,Route 2 Hwy 14,55952,-89.74977729999999,43.1433245,9,Public,,,,,36,3164,,,36,2654,,
7923,Chisago Lakes Golf Course,Lindstrom,Minnesota,12975 192nd St,55045,-92.8479921,45.3894083,18,Semi-Private,72,6529,119,71.20,72,6299,117,70.30,72,5714,124,72.70
7924,Litchfield Golf Club,Litchfield,Minnesota,W Pleasure Dr,55355,-94.5387985,45.11426460000001,9,Public,35,3199,123,34.90,35,3067,121,34.30,35,2525,121,34.70
7925,Little Falls Country Club,Little Falls,Minnesota,1 Edgewater Dr,56345,-94.3776727,45.9612547,18,Public,,,,,72,6051,121,69.00,73,5713,125,72.60
7926,Long Prairie Country Club,Long Prairie,Minnesota,405 6th St SE,56347,-94.85548419999999,45.9689275,18,Semi-Private,72,6302,125,71.00,72,6024,122,69.80,72,5209,117,70.80
7927,Chippewa National Golf Course,Longville,Minnesota,Rural Route 1,56655,-94.2113636,46.9863443,9,Public,,,,,36,3120,131,,36,3006,122,
7928,Executive at Ridgewood Golf Course,Longville,Minnesota,Hwy 7,56655,-95.01676540000001,44.9354593,9,Public,,,,,29,1023,,,29,1023,,
7929,Regulation Eighteen at Ridgewood Golf Course,Longville,Minnesota,Hwy 7,56655,-95.01676540000001,44.9354593,18,Public,72,6564,129,72.00,72,6360,127,71.00,73,5669,127,72.90
7930,Luverne Country Club,Luverne,Minnesota,Rural Route 3,56156,-96.2025289,43.6555249,9,Semi-Private,36,3339,125,36.20,36,3198,123,35.60,36,2516,113,34.50
7931,Meadowbrook Country Club,Mabel,Minnesota,Rural Route 2,55954,-91.7660525,43.5206612,9,Public,,,,,36,2608,104,32.80,35,2248,105,33.00
7932,Madelia Golf Course,Madelia,Minnesota,116 W Main St,56062,-94.4188921,44.0506194,9,Public,36,3141,,,36,3072,,,36,2497,,
7933,Madison Country Club,Madison,Minnesota,W Hwy 40,56256,-96.19353079999999,45.0096617,9,Semi-Private,,,,,35,2802,119,33.70,35,2715,119,36.20
7934,Mahnomen Country Club,Mahnomen,Minnesota,Route 2,56557,-95.9623601,47.3082305,9,Semi-Private,,,,,36,2979,125,34.80,36,2421,121,34.10
7935,Twenty Nine Pines Golf Course,Mahtowa,Minnesota,2871 Sundberg,55707,-92.6383166,46.565002,9,Public,,,,,34,1951,87,30.10,34,1951,96,31.60
7936,Par d Executive at Terrace View Golf Course,Mankato,Minnesota,Hwy 22 S,56001,-93.94919999999999,44.1635237,9,Public,,,,,27,1386,66,26.00,27,1116,65,25.90
7937,Mankato Golf Club,Mankato,Minnesota,Golf Club Rd,56002,-93.9776687,44.1920623,18,Private,71,6215,130,70.20,71,5990,128,69.20,71,5009,126,68.90
7938,Minneopa Golf Club,Mankato,Minnesota,Route 9 S 169 & 160,56001,-93.9674371,44.1223003,9,Public,,,,,33,2485,104,34.10,35,2422,110,33.70
7939,Regulation at Terrace View Golf Course,Mankato,Minnesota,Hwy 22 S,56001,-93.94919999999999,44.1635237,9,Public,36,3304,118,35.50,36,3093,114,34.50,36,2464,110,34.00
7940,Rush Creek Golf Club,Maple Grove,Minnesota,7801 County Rd 101,55311,-93.51447569999999,45.0968334,18,Public,72,7020,137,74.20,72,6223,131,70.00,72,5317,119,66.20
7941,Sundance Golf Club,Maple Grove,Minnesota,15240 113th Ave No,55369,-93.4743795,45.1594309,18,Public,72,6415,127,70.70,72,6192,125,69.60,73,5456,126,71.60
7942,Back Nine at Country View Golf Course,Maplewood,Minnesota,2926 N Hwy 61,55109,-93.0461639,45.0289435,9,Public,,,,,27,1300,,,27,1300,,
7943,Maple Hills Par d,Maplewood,Minnesota,907 Parkway Dr,55106,-93.0672237,44.9934866,9,Public,,,,,27,1158,,,27,1085,,
7944,Front Nine at Country View Golf Course,Maplewood,Minnesota,2926 N Hwy 61,55109,-93.0461639,45.0289435,9,Public,,,,,27,1368,,,27,1368,,
7945,Goodrich Golf Course,Maplewood,Minnesota,1820 N Van Dyke St,55109,-93.02129080000002,44.9959011,18,Public,70,6223,110,68.60,70,5900,107,67.20,72,5316,113,69.30
7946,Marshall Golf Club,Marshall,Minnesota,800 Country Club Dr,56258,-95.80315999999999,44.437906,18,Semi-Private,72,6601,130,71.60,72,6266,127,70.20,72,5136,124,70.20
7947,Savanna Golf & Supper Club,McGregor,Minnesota,Hist County Road 4,55760,-93.30868699999999,46.60682629999999,9,Semi-Private,,,,,36,3254,113,35.00,36,2623,111,34.70
7948,Nine Hole at Rolling Green Country Club,Medina,Minnesota,400 Evergreen Ln,55340,-93.534518,45.049185,9,Private,,,,,27,1175,,,27,1175,,
7949,The Nine Hole at Baker National Golf Course,Medina,Minnesota,2935 Parkview Dr,55340,-93.6044604,45.0319768,9,Public,,,,,36,1850,,,36,1850,,
7950,Eighteen Hole at Rolling Green Country Club,Medina,Minnesota,400 Evergreen Ln,55340,-93.534518,45.049185,18,Private,72,7030,133,73.50,72,6604,129,71.60,72,5660,126,72.70
7951,The Eighteen Hole at Baker National Golf Course,Medina,Minnesota,2935 Parkview Dr,55340,-93.6044604,45.0319768,18,Public,72,6762,133,74.20,72,6294,128,71.80,72,5395,129,72.70
7952,Meadowlark Country Club,Melrose,Minnesota,837 Country Club Dr,56352,-94.8215374,45.6628645,9,Semi-Private,,,,,36,3156,111,34.60,36,2574,102,36.00
7953,Blueberry Pines Golf Club,Menahga,Minnesota,Hwy 71 No,56464,-95.09574549999999,46.7498494,18,Public,72,6693,135,72.60,72,6393,132,71.40,72,5024,123,69.50
7954,Mendota Heights Par d Golf Course,Mendota Heights,Minnesota,1695 Dodd Rd,55118,-93.122642,44.895019,9,Public,,,,,27,1277,,,27,1277,,
7955,Mendakota Country Club,Mendota Heights,Minnesota,2075 Mendakota Dr,55120,-93.13497079999999,44.8799192,18,Private,71,6383,133,70.80,71,6078,130,69.80,71,5259,120,70.90
7956,Somerset Country Club,Mendota Heights,Minnesota,1416 Dodd Rd,55118,-93.110356,44.901471,18,Private,72,6728,133,73.50,72,6445,130,72.30,73,5708,134,74.80
7957,Milaca Golf Club,Milaca,Minnesota,Central Ave No,56353,-93.65281689999999,45.76113660000001,9,Semi-Private,35,2963,112,34.10,35,2903,111,33.90,37,2716,121,35.90
7958,Columbia Golf Course,Minneapolis,Minnesota,3300 Central Ave NE,55418,-93.2484121,45.028132,18,Public,71,6371,122,70.00,71,6121,119,68.80,71,5191,117,69.30
7959,Francis A. Gross Golf Course,Minneapolis,Minnesota,2201 Saint Anthony Blvd,55418,-93.2125738,45.00977169999999,18,Public,71,6574,122,70.80,71,6348,120,69.80,71,5257,117,70.70
7960,Hiawatha Golf Course,Minneapolis,Minnesota,4553 Longfellow Ave S,55407,-93.24601620000001,44.9204559,18,Public,73,6645,123,71.20,73,6279,119,69.50,74,5796,125,72.50
7961,"Minikahda Club, The",Minneapolis,Minnesota,3205 Excelsior Blvd,55416,-93.321196,44.94333229999999,18,Private,73,6671,136,72.30,73,6410,134,71.10,73,5289,129,70.60
7962,Minneapolis Golf Club,Minneapolis,Minnesota,2001 Flag Ave S,55426,-93.39527609999999,44.96414360000001,18,Private,72,6882,137,74.30,72,6517,133,72.70,74,5590,133,73.40
7963,Countryside Golf Club,Minneota,Minnesota,E Lyon St,56264,-95.98068160000001,44.5578886,9,Semi-Private,36,3260,120,35.30,36,3113,117,34.60,36,2678,116,34.80
7964,Glen Lake Golf Course,Minnetonka,Minnesota,14350 County Rd 62,55345,-93.4617167,44.8921693,9,Public,,,,,31,1995,100,29.70,31,1756,108,31.80
7965,Meadowwoods Golf Course,Minnetonka,Minnesota,18300 Ridgewood Rd,55345,-93.5126976,44.9239262,9,Public,,,,,29,1641,,,29,1466,,
7966,Lafayette Club,Minnetonka Beach,Minnesota,2800 Northview Rd,55391,-93.59345010000001,44.94339129999999,9,Private,,,,,31,2148,108,30.60,32,2148,107,32.50
7967,Montevideo Country Club,Montevideo,Minnesota,W Hwy 212,56265,-95.7268555,44.937026,18,Semi-Private,72,6154,116,70.00,72,5735,113,68.10,72,5063,118,69.40
7968,Montgomery Golf Club,Montgomery,Minnesota,900 Rogers Dr,56069,-93.576607,44.449988,18,Semi-Private,72,6540,125,71.50,72,6193,122,69.90,72,5029,125,68.90
7969,Gold at Silver Springs Golf Course,Monticello,Minnesota,1855 County Rd 39 NE,55362,-93.851812,45.3071964,18,Public,72,6730,117,70.80,72,6438,115,69.50,72,5959,121,72.60
7970,Monticello Country Club,Monticello,Minnesota,1201 Golf Course Rd,55362,-93.8170449,45.307336,18,Semi-Private,71,6236,123,70.60,71,5872,119,68.90,72,5085,117,69.80
7971,Silver at Silver Springs Golf Course,Monticello,Minnesota,1855 County Rd 39 NE,55362,-93.851812,45.3071964,18,Public,72,6956,118,72.10,72,6622,115,70.50,72,6176,126,73.90
7972,Town & Country Golf Course,Moorhead,Minnesota,Rural Route 2,56560,-96.76780389999999,46.8737648,9,Public,,,,,30,1648,,,30,1648,,
7973,"Meadows Public Golf Course, The",Moorhead,Minnesota,401 34th St S,56560,-96.72819199999999,46.8717425,18,Public,72,6862,125,72.20,72,6490,121,70.50,72,5150,114,69.30
7974,Moorhead Country Club,Moorhead,Minnesota,N River Dr,56560,-96.7687438,46.9007612,18,Private,72,6404,129,71.70,72,6019,125,70.10,72,5047,120,70.00
7975,Village Green Public Golf Course,Moorhead,Minnesota,3420 Village Green Blvd,56560,-96.72302099999999,46.840152,18,Public,72,6763,119,72.00,72,6440,116,70.50,72,5386,114,69.90
7976,Moose Lake Golf Club,Moose Lake,Minnesota,Hwy 61 S,55767,-92.783378,46.4368259,9,Semi-Private,,,,,34,2447,,,34,2295,,
7977,Spring Brook Golf Course,Mora,Minnesota,Route 1 County Rd 69,55051,-93.225485,45.875333,18,Semi-Private,70,6259,130,71.30,70,5922,127,69.80,70,4721,121,68.90
7978,Pomme de Terre Golf Club,Morris,Minnesota,Hwy 9 S,56267,-95.9195939,45.5916196,9,Semi-Private,,,,,35,2871,123,34.10,37,2413,120,34.20
7979,Pine Ridge Golf Club,Motley,Minnesota,100 Hillcrest Rd,56466,-94.64016690000001,46.2604654,18,Public,73,6449,124,71.10,73,6145,121,69.90,73,5744,129,72.60
7980,Burl Oaks Golf Club,Mound,Minnesota,5400 N Arm Dr,55364,-93.66358,44.97513499999999,18,Private,71,6597,131,72.80,71,6212,127,71.10,72,5355,123,71.90
7981,Red Oak Golf Club,Mound,Minnesota,855 Red Oak Ln,55364,-93.647994,44.960732,9,Public,,,,,27,1208,,,27,1208,,
7982,"Bridges of Mounds View, The",Mounds View,Minnesota,8290 Coral Sea Sr,55449,-93.1987978,45.1219851,9,Public,32,2242,95,30.60,32,2036,91,29.70,32,1701,93,29.30
7983,Mountain Lake Golf Course,Mountain Lake,Minnesota,Lakeshore Dr,56159,-94.940123,43.9461134,9,Semi-Private,,,,,36,3019,,,36,2803,,
7984,Brightwood Hills Golf Course,New Brighton,Minnesota,1975 Silver Lake Rd NW,55112,-93.2182615,45.0814262,9,Public,,,,,30,1573,92,28.70,30,1384,88,27.80
7985,New Hope Village Golf Course,New Hope,Minnesota,8130 Bass Lake Rd,55428,-93.3844755,45.0572471,9,Public,,,,,27,1389,99,26.70,27,1212,98,26.60
7986,Creek's Bend Golf Course,New Prague,Minnesota,26826 Langford Ave,56071,-93.50618899999999,44.5610717,18,Public,72,6205,124,70.00,72,5860,117,68.30,72,4906,115,68.20
7987,New Prague Golf Club,New Prague,Minnesota,400 Lexington Ave S,56071,-93.567965,44.5403499,18,Public,72,6335,121,69.50,72,6030,118,68.10,72,5032,116,68.30
7988,Riverview Golf Course,New Richland,Minnesota,Route 2,56072,-93.4918842,43.8944047,9,Public,,,,,36,3097,129,38.00,36,2799,122,36.30
7989,New Ulm Country Club,New Ulm,Minnesota,1 Golf Dr,56073,-94.4587665,44.289183,18,Semi-Private,71,6271,121,71.00,71,6010,119,69.70,72,4973,115,69.50
7990,"Woods/Marsh at Pines at Grand View Lodge, The",Nisswa,Minnesota,134 S Nokomis Ave,56468,-94.3136016,46.495504,18,Resort,72,6874,139,73.90,72,6471,136,72.10,72,5134,129,71.30
7991,"Marsh/Lakes at Pines at Grand View Lodge, The",Nisswa,Minnesota,134 S Nokomis Ave,56468,-94.3136016,46.495504,18,Resort,72,6883,141,74.30,72,6479,138,72.70,72,5210,132,70.70
7992,"Preserve at Pines at Grand View Lodge, The",Nisswa,Minnesota,134 S Nokomis Ave,56468,-94.3136016,46.495504,18,Resort,72,6601,135,71.60,72,6204,132,69.90,72,4816,119,68.80
7993,"The Garden at Pines at Grand View Lodge, The",Nisswa,Minnesota,134 S Nokomis Ave,56468,-94.3136016,46.495504,9,Resort,,,,,35,2502,,,35,2245,,
7994,"Deacon's Lodge at Pines at Grand View Lodge, The",Nisswa,Minnesota,134 S Nokomis Ave,56468,-94.3136016,46.495504,18,Resort,72,6964,128,73.80,72,6541,124,71.90,72,5364,121,71.00
7995,Birch Bay Resort & Golf Course,Nisswa,Minnesota,1771 Birch Dr W,56468,-94.368209,46.4515627,9,Public,,,,,36,2905,,,37,2558,,
7996,Fritiz's Resort & Golf Course,Nisswa,Minnesota,942 Hwy 371 No,56468,-94.2983079,46.4847376,9,Resort,,,,,30,1122,,,30,1122,,
7997,"Lakes/Woods at Pines at Grand View Lodge, The",Nisswa,Minnesota,134 S Nokomis Ave,56468,-94.3136016,46.495504,18,Resort,72,6837,137,74.20,72,6452,134,72.40,72,5112,128,70.60
7998,North Branch Golf Course,North Branch,Minnesota,1256 County Rd 30,55056,-93.0178507,45.5080663,9,Public,,,,,35,2898,122,33.90,36,2620,123,34.90
8000,Willinger's Golf Club,Northfield,Minnesota,6900 Canby Trl,55057,-93.3143769,44.49263,18,Public,72,6711,140,73.30,72,6233,136,71.10,72,5166,130,71.60
8001,North Links Golf Course,North Mankato,Minnesota,RFD 2,56003,-94.033845,44.1732996,18,Public,72,6073,117,69.10,72,5624,113,67.00,72,4659,114,67.00
8002,North Oaks Golf Club,North Oaks,Minnesota,54 E Oaks Rd,55127,-93.0946086,45.08448019999999,18,Private,71,6622,133,72.50,71,6383,131,71.50,74,5862,135,74.50
8003,Oak Marsh Golf Course,Oakdale,Minnesota,526 Inwood Ave No,55128,-92.9371249,44.9552574,18,Public,70,6184,117,69.30,70,5793,113,67.50,70,4648,108,66.20
8004,Oakdale Par d,Oakdale,Minnesota,5585 Golfview Ave No,55128,-92.97951499999999,45.028783,9,Public,,,,,27,1310,,,27,1135,,
8005,Olivia Golf Club,Olivia,Minnesota,512 S 6th St,56277,-94.9843021,44.77276759999999,9,Semi-Private,36,3279,125,36.10,36,3171,123,35.70,36,2668,118,35.90
8006,Black Brook at Izatys Golf & Yacht Club,Onamia,Minnesota,40005 85th Ave,56359,-93.5875291,46.1262046,18,Resort,72,6867,140,74.20,72,6391,136,72.10,72,5119,122,71.10
8007,Sanctuary at Izatys Golf & Yacht Club,Onamia,Minnesota,40005 85th Ave,56359,-93.5875291,46.1262046,18,Resort,72,6646,134,72.60,72,6169,129,70.50,72,5075,125,70.30
8008,Lakeview Golf Course,Orono,Minnesota,409 N Arm Dr,55364,-93.6399853,44.9708358,18,Public,70,5468,108,65.80,70,5236,107,64.90,70,4882,109,67.10
8009,Ortonville Golf Club,Ortonville,Minnesota,Golf Course Rd,56278,-96.45526249999999,45.325983,18,Public,72,6182,117,68.90,72,6001,111,68.10,72,5419,115,70.60
8010,Osakis Country Club,Osakis,Minnesota,Hwy 27 E,56360,-95.1450773,45.8617387,9,Semi-Private,,,,,36,2952,119,34.30,37,2611,126,35.20
8011,Havana Hills Par d Golf,Owatonna,Minnesota,Rural Route 4,55060,-93.2259349,44.0855572,9,Public,,,,,27,1140,,,27,1140,,
8012,Hidden Creek Golf Course,Owatonna,Minnesota,4989 E Rose St,55060,-93.19118689999999,44.0878241,18,Public,72,7002,126,73.50,72,6220,119,70.30,72,4554,110,66.20
8013,Brooktree Golf Course,Owatonna,Minnesota,1369 Cherry St,55060,-93.19957389999999,44.0943146,18,Public,71,6684,122,72.10,71,6374,120,70.80,72,5534,122,71.60
8014,Owatonna Country Club,Owatonna,Minnesota,Lemond Rd,55060,-93.24416869999999,44.0748112,18,Semi-Private,71,6296,132,71.80,71,6081,130,70.80,72,5358,132,72.40
8015,Brookside Resort,Park Rapids,Minnesota,Hwy 50,56470,-95.18935719999999,47.03270759999999,9,Resort,,,,,27,1370,,,27,1370,,
8016,Eagle View Golf Course,Park Rapids,Minnesota,Hwy 71 No,56470,-95.058445,46.9221964,18,Public,,,,,64,3617,83,56.70,64,3364,87,58.10
8017,Headwaters Golf & Country Club,Park Rapids,Minnesota,County Rd 1,56470,-95.1665337,47.1751862,18,Semi-Private,72,6506,130,70.70,72,6259,127,70.60,72,5382,123,71.70
8018,Koronis Hills Golf Club,Paynesville,Minnesota,Hwy 23 W,56362,-94.73300309999999,45.373756,18,Semi-Private,71,6260,121,70.00,71,6060,119,69.00,72,5040,121,69.50
8019,Birchwood Golf Course,Pelican Rapids,Minnesota,Golf Course Rd,56572,-96.07971359999999,46.58581340000001,9,Semi-Private,,,,,34,2448,112,32.10,35,2367,115,33.70
8020,Lida Greens Golf Course,Pelican Rapids,Minnesota,Hwy 108 E,56572,-96.0835492,46.5708111,9,Public,,,,,28,1898,81,28.90,31,1802,90,29.90
8021,Rolling Hills Golf Course,Pelican Rapids,Minnesota,County Rd 9 Route 2,56572,-96.08311239999999,46.57079239999999,9,Public,,,,,35,2725,98,32.60,35,2725,98,32.60
8022,Swan Lake Country Club,Pengilly,Minnesota,Old Hwy 65,55775,-93.19638239999999,47.3326805,9,Semi-Private,36,3235,,,36,3079,116,34.50,38,2752,122,35.80
8023,Lakes Area Golf Learning Center,Pequot Lakes,Minnesota,County Rd 16,56472,-94.30940249999999,46.6313326,9,Public,,,,,27,615,,,27,615,,
8024,"Preserve, The",Pequot Lakes,Minnesota,H C 2 40613,56472,-94.3094399,46.6030198,18,Public,72,6601,135,71.60,72,6204,132,69.90,72,4816,119,68.80
8025,Whitefish Golf Club,Pequot Lakes,Minnesota,Route 1 County Rd 16,56472,-94.30940249999999,46.6313326,18,Public,72,6407,128,70.70,72,6172,125,69.70,72,5680,127,73.00
8026,Perham Lakeside Country Club,Perham,Minnesota,County Rd 51,56573,-95.5740345,46.6654771,18,Public,72,6575,128,72.50,72,6321,126,71.30,72,5388,122,71.10
8027,Pierz Municipal Golf Course,Pierz,Minnesota,603 Park Ave,56364,-94.0898682,45.9756605,9,Public,35,3058,110,34.60,35,2974,109,34.20,38,2822,116,36.50
8028,Pine City Country Club,Pine City,Minnesota,Route 4,55063,-92.9560137,45.8453661,9,Semi-Private,36,3240,121,35.50,36,3180,120,35.10,38,2945,124,37.00
8029,Pine Island Golf Course,Pine Island,Minnesota,2000 8th St SE,55963,-92.61801899999999,44.1956429,9,Public,36,3365,128,36.10,36,3090,123,34.80,36,2482,114,34.40
8030,Driftwood Resort,Pine River,Minnesota,County Rd 15,56474,-94.3037056,46.6822922,9,Resort,,,,,27,1156,110,,27,1047,113,
8031,Irish Hills Golf Course,Pine River,Minnesota,Route 1,56474,-94.3941959,46.7187741,18,Public,72,6011,115,67.80,72,5728,113,66.90,72,4446,112,67.50
8032,Pine River Country Club,Pine River,Minnesota,County Rd 2,56474,-94.4122948,46.7191731,9,Semi-Private,36,3455,119,35.90,36,3158,113,34.50,36,2622,112,34.40
8033,Pipestone Country Club,Pipestone,Minnesota,8th Ave SE,56164,-96.307474,43.986448,9,Semi-Private,36,3247,114,35.30,36,3041,110,34.30,37,2615,111,34.80
8034,Piper Hills Golf Course,Plainview,Minnesota,S Hwy 42,55964,-92.1656939,44.16494369999999,9,Public,,,,,36,3086,115,34.20,36,2762,127,36.30
8035,Elm Creek Golf Links of Plymouth,Plymouth,Minnesota,18940 Hwy 55,55446,-93.5210868,45.0417555,18,Public,70,6235,132,70.40,70,5773,128,68.80,71,4874,117,68.00
8036,Hampton Hills Golf Club,Plymouth,Minnesota,5313 Juneau Ln,55446,-93.4693719,45.0514034,18,Public,,,,,73,6135,104,68.20,73,5554,112,68.80
8037,Hollydale Golf Club,Plymouth,Minnesota,4710 Holly Ln No,55446,-93.496635,45.0400332,18,Public,71,6160,121,70.10,71,5980,119,69.40,73,5128,120,69.90
8038,Preston Golf Club,Preston,Minnesota,Hwy 16 W,55965,-92.08338529999999,43.6754607,9,Public,,,,,35,2983,106,33.80,37,2983,,
8039,Princeton Golf Club,Princeton,Minnesota,Golf Course Rd,55372,-93.5777319,45.5635021,18,Semi-Private,71,6365,126,70.80,71,6150,124,70.00,71,4901,115,68.90
8040,"Wilds Golf Club, The",Prior Lake,Minnesota,3151 Wilds Ridge,55372,-93.4571682,44.7373875,18,Public,72,7025,140,74.70,72,6538,131,72.00,72,5095,126,70.20
8041,Cleary Lake Park Golf Course,Prior Lake,Minnesota,18106 Texas Ave,55372,-93.383427,44.69123099999999,9,Public,,,,,28,1675,,,29,1675,,
8042,Scottdale Golf Club,Prior Lake,Minnesota,19400 Natchez Rd,55372,-93.3396071,44.6691553,9,Public,37,3330,123,36.20,36,3147,119,35.40,36,2537,121,34.60
8043,Lone Pine Country Club,Prior Lake,Minnesota,County Rd 82 W,55377,-93.4589747,44.7248351,18,Public,,,,,71,5965,128,69.20,71,5020,118,69.30
8044,Proctor Golf Course,Proctor,Minnesota,Hwy 2,55810,-92.23018429999999,46.7527835,9,Public,,,,,33,2281,104,,33,2111,99,
8045,Links at Northfork,Ramsey,Minnesota,9333 153rd St NW,55303,-93.4394852,45.249221,18,Public,72,6989,127,73.70,72,6344,121,71.00,72,5241,117,70.50
8046,Rum River Hills Golf Club,Ramsey,Minnesota,16659 Saint Francis Blvd,55303,-93.41577099999999,45.273155,18,Public,71,6308,117,71.00,71,6091,115,70.00,71,5024,120,69.60
8047,Hawk Creek Country Club,Raymond,Minnesota,100 Spicer Ave NE,56282,-95.23833789999999,45.0173506,9,Public,36,3227,120,35.20,36,3121,118,34.70,36,2475,112,34.00
8048,Oak Knolls Golf Club,Red Lake Falls,Minnesota,Hwy 32 S,56750,-96.2740853,47.8821769,9,Semi-Private,36,2914,110,33.70,36,2759,107,33.20,38,2507,112,34.00
8049,Highlands at Mississippi National Golf Links,Red Wing,Minnesota,409 Golf Links Dr,55066,-92.4936859,44.5539711,18,Public,71,6282,121,70.50,71,5877,117,68.70,71,5002,115,69.30
8050,Lowlands at Mississippi National Golf Links,Red Wing,Minnesota,409 Golf Links Dr,55066,-92.4936859,44.5539711,18,Public,71,6484,126,71.00,71,6195,123,69.70,71,5450,121,71.00
8051,Red Wing Country Club,Red Wing,Minnesota,1311 W 6th St,55066,-92.54741399999999,44.5583675,18,Semi-Private,71,6169,129,70.90,71,5892,126,69.70,72,4831,117,69.80
8052,Redwood Falls Golf Club,Redwood Falls,Minnesota,101 E Oak St,56283,-95.1217918,44.5498787,9,Semi-Private,36,3223,132,36.20,36,3075,129,35.50,36,2734,122,36.50
8053,Stoney Creek Golf Course,Renville,Minnesota,820th Ave,56284,-95.2195105,44.7745752,9,Public,36,3378,133,36.50,36,3266,130,35.70,36,2742,122,36.00
8054,Oak Hill Golf Club,Rice,Minnesota,9000 Hwy 10 NW,56367,-94.187658,45.7040823,18,Public,72,6534,120,70.80,72,6035,119,68.60,72,5006,118,68.30
8055,Oak Summit Golf Course,Rochester,Minnesota,2751 County Rd 16 SW,55902,-92.501921,43.920616,18,Public,71,6518,121,71.30,71,6128,117,69.50,71,5159,115,69.10
8056,Meadow Lakes Golf Club,Rochester,Minnesota,70 45th Ave SW,55902,-92.52605199999999,44.018787,18,Public,71,6287,112,69.20,71,5946,109,68.10,71,4855,104,67.10
8057,Eastwood Golf Club,Rochester,Minnesota,3505 Eastwood Rd SE,55904,-92.4092542,44.0077981,18,Public,,,,,70,6178,119,69.40,70,5289,116,70.30
8058,Maple Valley Golf & Country Club,Rochester,Minnesota,8600 Maple Valley Rd SE,55904,-92.37577999999999,43.895938,18,Public,71,6270,121,70.50,71,5990,118,69.10,71,5330,120,71.10
8059,Northern Hills Golf Club,Rochester,Minnesota,4805 41St Ave NW,55901,-92.52341039999999,44.03583159999999,18,Public,72,6310,126,70.00,72,5971,123,68.50,72,5522,126,71.60
8060,Rochester Golf & Country Club,Rochester,Minnesota,3100 Country Club Rd SW,55902,-92.5120712,44.0222811,18,Private,71,6394,131,71.10,71,6199,130,70.20,72,5228,121,70.70
8061,Soldiers Memorial Field Golf Course,Rochester,Minnesota,244 Soldiers Field SW,55901,-92.4665962,44.01122600000001,18,Public,,,,,70,5706,114,67.00,71,5337,117,70.00
8062,Willow Creek Golf Course,Rochester,Minnesota,1700 SW 48th St,55902,-92.48619,43.9512399,18,Semi-Private,70,6053,117,69.10,70,5702,114,67.50,70,5293,121,70.50
8063,Fox Hollow Golf Club,Rogers,Minnesota,4780 Palmgren Ln NE,55374,-93.57309099999999,45.22137,18,Public,72,6726,129,72.70,72,6294,125,70.90,72,5884,130,74.80
8064,Pheasant Run Golf Club,Rogers,Minnesota,10705 County Rd 116,55374,-93.5427074,45.1491072,18,Public,71,6331,117,69.90,71,6089,116,69.00,72,5038,115,68.60
8065,Oak Crest Golf Club,Roseau,Minnesota,5th St SE,56751,-95.74635769999999,48.8425081,18,Public,71,6371,118,70.00,71,6076,115,68.70,71,5054,112,68.60
8066,Blue/White at Rich Valley Golf Club,Rosemount,Minnesota,3855 145th St E,55068,-93.02270999999999,44.742511,18,Public,,,,,68,5079,91,62.70,69,4397,94,63.50
8067,White/Red at Rich Valley Golf Club,Rosemount,Minnesota,3855 145th St E,55068,-93.02270999999999,44.742511,18,Public,,,,,67,5289,90,63.60,69,4680,94,64.80
8068,Brockway Golf Course,Rosemount,Minnesota,13500 S Robert Trl,55068,-93.1242973,44.751194,9,Public,,,,,35,2815,119,34.00,35,2461,116,34.00
8069,Red/Blue at Rich Valley Golf Club,Rosemount,Minnesota,3855 145th St E,55068,-93.02270999999999,44.742511,18,Public,,,,,69,5286,94,63.90,70,4539,96,64.10
8070,Roseville Cedarholm Golf Course,Roseville,Minnesota,2323 N Hamline Ave,55113,-93.15926619999999,45.0120685,9,Public,,,,,27,1373,,,30,1373,,
8071,Ferndale Country Club,Rushford,Minnesota,Route 2 Hwy 16,55971,-91.7532195,43.80545009999999,9,Public,36,3360,119,35.50,36,3228,117,34.90,38,2978,108,36.50
8072,Saint Charles Golf Course,Saint Charles,Minnesota,1920 Park Rd,55972,-92.04782499999999,43.958829,18,Public,72,6439,109,68.20,72,6207,,,72,5330,,
8073,Par d at Angushire Golf Course,Saint Cloud,Minnesota,224 Waite Ave S,56301,-94.21314149999999,45.5474743,9,Public,,,,,27,1282,,,27,1282,,
8074,Veterans Golf Club,Saint Cloud,Minnesota,5001 8th St No,56303,-94.2196352,45.5679412,9,Public,,,,,30,1668,,,30,1439,,
8075,Regulation at Angushire Golf Course,Saint Cloud,Minnesota,224 Waite Ave S,56301,-94.21314149999999,45.5474743,9,Public,,,,,35,2708,109,32.80,35,2708,113,34.00
8076,St. Cloud Country Club,Saint Cloud,Minnesota,301 Montrose Rd,56301,-94.146791,45.5204134,18,Private,72,6622,133,72.60,72,6415,132,71.70,72,5304,123,71.20
8077,St. James Country Club,Saint James,Minnesota,Hwy 60 E,56081,-94.62038969999999,43.9681735,18,Semi-Private,72,6829,131,72.70,72,6402,127,70.80,72,5184,118,70.00
8078,Lost Spur Country Club,Saint Paul,Minnesota,2750 Sibley Memorial Hwy,55121,-93.1748673,44.8583029,9,Private,,,,,34,2401,117,31.70,35,2240,124,33.40
8079,Como Golf Course,Saint Paul,Minnesota,1431 Lexington Pkwy No,55103,-93.1497941,44.9858402,18,Public,70,5821,117,67.60,70,5581,115,66.50,70,5077,115,69.00
8080,Highland Park Eighteen Golf Course,Saint Paul,Minnesota,1403 Montreal Ave,55116,-93.1594387,44.91270859999999,18,Public,72,6265,111,69.00,72,6097,110,68.40,73,5600,118,71.10
8081,Hillcrest Country Club,Saint Paul,Minnesota,2200 Larpenteur Ave E,55109,-93.00835149999999,44.9908161,18,Private,72,6350,135,71.70,72,6051,132,70.20,72,5412,134,72.80
8082,Keller Golf Course,Saint Paul,Minnesota,2166 Maplewood Dr,55109,-93.0558831,45.0076356,18,Public,72,6566,128,71.70,71,6041,123,69.40,73,5373,125,71.30
8083,Midland Hills Country Club,Saint Paul,Minnesota,2001 Fulham St,55113,-93.1968648,45.0013189,18,Private,72,6577,135,72.60,72,6340,132,71.50,74,5553,135,72.90
8084,Phalen Park Golf Course,Saint Paul,Minnesota,1615 Phalen Dr,55106,-93.0627434,44.98911349999999,18,Public,70,6101,120,68.90,70,5881,118,67.80,71,5389,125,70.70
8085,Town & Country Club,Saint Paul,Minnesota,300 Mississippi River Blvd No,55104,-93.199598,44.9491365,18,Private,72,6301,132,71.90,72,6111,130,71.00,75,5721,137,74.50
8086,Fort Snelling Golf Course,Saint Paul,Minnesota,Building 175,55111,-93.1073795,44.9579475,9,Public,,,,,35,2682,102,32.50,36,2682,109,33.90
8087,Highland Nine Golf Course,Saint Paul,Minnesota,1797 Edgecumbe Rd,55116,-93.15751499999999,44.9120311,9,Public,,,,,35,2794,103,32.20,35,2674,109,34.20
8088,Shoreland Country Club,Saint Peter,Minnesota,Lake Emily County Rd 21,56082,-93.93255119999999,44.3104662,18,Semi-Private,,,,,69,5575,112,66.60,71,5066,117,68.90
8089,Farmers Golf & Health Club,Sanborn,Minnesota,County Rd 15,56083,-95.1350003,44.2096903,9,Public,,,,,36,3026,105,34.90,36,2534,104,34.90
8090,Sandstone Area Country Club,Sandstone,Minnesota,343 Lark St,55072,-92.8709173,46.135811,9,Public,34,2581,102,31.90,34,2496,102,31.90,35,2260,115,32.70
8091,Wapicada Golf Club,Sank Rapids,Minnesota,4448 15th St Ne,56379,-94.06972239999999,45.5888692,18,Semi-Private,72,6610,127,71.70,72,6269,124,70.10,73,5491,126,71.50
8092,Sartell Golf Club,Sartell,Minnesota,35103 Pinecone Rd,56377,-94.22217239999999,45.6423533,18,Public,72,6363,,,72,6009,113,68.30,72,5321,115,69.90
8093,"Lynx National Golf Course, The",Sauk Centre,Minnesota,40204 Primrose Ln,56378,-94.94756369999999,45.6944765,18,Public,72,6700,124,71.10,72,6208,119,68.90,72,5244,113,69.10
8094,Sauk Centre Country Club,Sauk Centre,Minnesota,Lakeshore Dr,56378,-94.9513139,45.7543914,9,Semi-Private,,,,,37,3203,124,35.20,37,2850,122,37.20
8095,Stonebrooke Golf Club,Shakopee,Minnesota,2693 S County Rd 79,55379,-93.51607249999999,44.7543495,18,Public,71,6604,133,72.40,71,6069,128,70.00,71,5033,120,69.90
8096,Fox Lake Golf Club,Sherburn,Minnesota,Fox Lake Park,56171,-94.72113139999999,43.6584363,9,Semi-Private,35,2714,120,33.10,35,2572,118,32.60,37,2187,114,32.80
8097,Island Lake Golf & Training Center,Shoreview,Minnesota,1000 Red Fox Rd,55126,-93.1424138,45.0566031,9,Public,29,1423,71,25.60,29,1262,,,29,1129,,
8098,Silver Bay Country Club,Silver Bay,Minnesota,Edison Blvd,55614,-91.28359929999999,47.29208260000001,9,Public,,,,,36,3173,121,35.20,38,2682,122,
8099,Slayton Country Club,Slayton,Minnesota,Route 2,56172,-95.7558464,43.9877419,9,Semi-Private,,,,,35,2837,,,36,2514,,
8100,Sleepy Eye Golf Club,Sleepy Eye,Minnesota,Hwy 14 W,56085,-94.7263889,44.2980556,9,Semi-Private,,,,,36,2970,116,34.00,36,2545,114,34.40
8101,Little Crow Country Club,Spicer,Minnesota,Hwy 23,56288,-94.93974999999999,45.23302959999999,18,Semi-Private,72,6740,123,72.30,72,6390,119,70.50,72,5662,125,73.10
8102,Springfield Golf Club,Springfield,Minnesota,S O'Connell Ave,56087,-94.9776504,44.2379296,9,Semi-Private,,,,,36,3073,112,34.30,36,2576,110,34.40
8103,Root River Country Club,Spring Valley,Minnesota,Rural Route 1,55975,-92.389029,43.6960105,9,Semi-Private,,,,,36,2959,114,34.50,36,2757,116,35.60
8104,Regulation Eighteen at Falcon Ridge Golf Course,Stacy,Minnesota,33942 Falcon Ave,55079,-93.00521900000001,45.43732199999999,18,Public,72,5787,117,70.10,72,5627,114,69.20,72,5070,120,69.60
8105,Executive Nine at Falcon Ridge Golf Course,Stacy,Minnesota,33942 Falcon Ave,55079,-93.00521900000001,45.43732199999999,9,Public,,,,,29,1545,81,,29,1451,80,
8106,Grandy Nine Golf Club,Stanchfield,Minnesota,1118 361St Ave NE,55080,-93.2405678,45.6230827,9,Public,,,,,35,2615,,,37,2581,,
8107,Terrace National Golf Club,Staples,Minnesota,County Rd 30,56479,-94.8164001,46.3903005,18,Public,72,6571,130,71.60,72,6219,127,70.00,72,5096,119,69.20
8108,Riverside Golf Club,Stephen,Minnesota,613 Golf Terrace,56757,-96.87918429999999,48.4491556,9,Public,,,,,35,2755,97,32.30,35,2410,97,35.00
8109,Riverview Greens,Stewartville,Minnesota,1801 FirSt Ave NE,55976,-92.4860934,43.8673544,18,Public,66,4771,,,66,4430,,,66,3778,,
8110,Maplebrook Golf Course,Stewartville,Minnesota,701 E 1St St,55976,-92.47705119999999,43.8555149,9,Semi-Private,,,,,30,1782,82,28.80,30,1565,84,30.10
8111,Nine Hole at Oak Glen Country Club,Stillwater,Minnesota,1599 McKusick Rd,55082,-92.83040160000002,45.07072400000001,9,Public,,,,,29,1738,,,29,1560,,
8112,Applewood Hills Golf Course,Stillwater,Minnesota,11840 60th St No,55082,-92.86748999999999,45.037065,18,Public,62,4180,92,59.10,62,3890,91,58.20,62,3510,94,59.10
8113,Indian Hills Golf Course,Stillwater,Minnesota,6667 Keats Ave No,55082,-92.899366,45.044386,18,Private,72,6751,126,72.60,72,6416,122,70.90,74,5711,128,73.20
8114,Eighteen at Oak Glen Country Club,Stillwater,Minnesota,1599 McKusick Rd,55082,-92.83040160000002,45.07072400000001,18,Public,72,6574,131,72.40,72,6310,128,71.30,72,5626,130,73.40
8115,Sawmill Golf Club,Stillwater,Minnesota,11177 N McKusick Rd,55082,-92.8821945,45.0784452,18,Semi-Private,70,6410,123,71.30,70,5837,118,68.50,71,4926,122,66.80
8116,Stillwater Country Club,Stillwater,Minnesota,1421 N 4th St,55082,-92.8112845,45.0685252,18,Private,72,6672,130,72.90,72,6451,128,71.90,72,5334,133,73.70
8117,"Thief River Falls Golf Club, The",Thief River Falls,Minnesota,Hwy 32 No,56701,-96.1815379,48.1191192,18,Semi-Private,,,,,72,6114,118,69.50,76,5589,123,72.30
8118,Tracy Country Club,Tracy,Minnesota,Hwy 14 E,56175,-95.6228429,44.2387884,9,Semi-Private,,,,,36,2953,119,33.90,36,2508,118,34.10
8119,Lakeview Municipal Golf Course,Two Harbors,Minnesota,Hwy 61 E,55616,-91.67075349999999,47.0256148,18,Public,72,6773,127,,72,6429,127,,72,5364,123,
8120,Tyler Community Golf Club,Tyler,Minnesota,County Rd 7,56178,-96.13528559999999,44.27591650000001,9,Semi-Private,,,,,36,3216,126,35.30,36,3027,127,37.50
8121,Deer Run Golf Club,Victoria,Minnesota,8661 Deer Run Dr,55386,-93.65845,44.846133,18,Public,71,6265,122,70.50,71,6075,120,69.60,71,5541,121,72.10
8122,Virginia Golf Course,Virginia,Minnesota,9th St No,55792,-92.54883319999999,47.5307006,18,Public,,,,,71,6226,118,69.50,72,5396,120,70.90
8123,Coffee Mill Golf & Country Club,Wabasha,Minnesota,215 Skyline Dr,55981,-92.0343778,44.354739,9,Semi-Private,36,3355,134,,36,3215,132,35.10,36,2829,126,36.10
8124,Island View Golf Club,Waconia,Minnesota,9150 Island View Rd,55387,-93.75164989999999,44.8624152,18,Semi-Private,72,6552,129,71.50,72,6252,126,70.10,72,5382,124,71.00
8125,Wadena Golf Club,Wadena,Minnesota,Hwy 71,56482,-95.09574549999999,46.7498494,18,Semi-Private,72,6654,119,70.80,72,6339,116,69.30,72,5266,113,69.00
8126,Wedgewood Golf Course,Walker,Minnesota,Hist County Road 73,56484,-94.5872162,47.10134619999999,9,Public,,,,,28,1535,,,28,1535,,
8127,Tianna Country Club,Walker,Minnesota,S Hwy 34,56484,-94.5868852,47.1013428,18,Semi-Private,72,6550,127,72.00,72,6323,125,71.00,74,5425,124,72.00
8128,Riverside Golf Club,Warren,Minnesota,S Main St,56762,-96.76675279999999,48.187189,9,Semi-Private,36,3110,,,36,2892,115,,37,2529,114,
8129,Warroad Estates Golf Course,Warroad,Minnesota,201 Birch Dr No,56763,-95.3322419,48.9404704,18,Semi-Private,72,6942,128,74.30,72,6205,123,71.60,73,5455,121,72.00
8130,Waseca Lakeside Golf Club,Waseca,Minnesota,37160 Clear Lake Dr,56093,-93.4814648,44.09894999999999,18,Semi-Private,71,6029,118,68.90,71,5823,116,67.90,71,5060,115,69.00
8131,River's Edge Country Club,Watertown,Minnesota,1455 County Rd 27,55388,-93.8302513,44.9751881,9,Public,36,2809,123,33.60,36,2743,112,33.30,36,2287,111,33.20
8132,Timber Creek Golf Course,Watertown,Minnesota,9750 County Rd 24,55388,-93.77125799999999,44.952806,18,Public,72,6568,130,71.60,72,6221,126,70.10,72,5421,125,71.00
8133,Wayzata Country Club,Wayzata,Minnesota,200 W Wayzata Blvd,55391,-93.5304855,44.9775198,18,Private,72,6932,138,74.80,72,6660,136,73.40,72,5734,127,72.90
8134,Woodhill Country Club,Wayzata,Minnesota,200 Woodhill Rd,55391,-93.5456758,44.9752348,18,Private,71,6575,131,72.40,71,6363,129,71.60,72,5601,129,73.50
8135,Wells Golf Club,Wells,Minnesota,1St Ave SW,56097,-93.7268886,43.7410101,9,Public,,,,,31,2044,99,,32,1930,98,
8136,Rolling Hills Golf Club,Westbrook,Minnesota,Route 2,56183,-95.43611279999999,44.0421825,9,Semi-Private,,,,,36,2874,110,33.90,38,2492,114,36.00
8137,Thompson Oaks Golf Course,West Saint Paul,Minnesota,1555 Oakdale Ave,55118,-93.07201289999999,44.8993802,9,Public,29,1675,87,28.80,29,1577,85,28.20,29,1252,77,26.40
8138,Southview Country Club,West Saint Paul,Minnesota,239 E Mendota Rd,55118,-93.07395269999999,44.8846272,18,Private,71,6394,130,71.40,71,6119,128,70.50,73,5631,128,73.50
8139,Wheaton Country Club,Wheaton,Minnesota,Hwy 27 W,56296,-96.4992381,45.804393,9,Semi-Private,,,,,36,2906,116,33.80,37,2524,119,35.00
8140,Oneka Ridge Golf Course,White Bear Lake,Minnesota,5610 120th St No,55110,-92.98671499999999,45.127362,18,Public,72,6351,119,70.80,72,6061,116,69.50,72,5166,114,69.70
8141,Gem Lake Hills Golf Course,White Bear Lake,Minnesota,4039 Scheuneman Rd,55110,-93.03161229999999,45.0633016,18,Public,,,,,57,3366,77,55.30,58,3018,80,56.10
8142,Manitou Ridge Golf Club,White Bear Lake,Minnesota,3200 N McKnight Rd,55110,-92.99991,45.039723,18,Public,71,6415,116,70.40,71,6051,113,68.70,71,5513,120,71.50
8143,Valley Golf Course,Willmar,Minnesota,1900 E Becker Ave,56201,-95.0178273,45.1211876,9,Public,,,,,35,2510,,,35,2241,,
8144,Eagle Creek Golf Club,Willmar,Minnesota,1000 26th Ave NE,56201,-95.03336759999999,45.1517588,18,Semi-Private,72,6342,129,70.80,72,6085,127,69.70,73,5271,127,70.90
8145,Windom Country Club,Windom,Minnesota,County Rd 13,56101,-95.1379705,43.8779693,9,Semi-Private,36,3057,119,34.10,36,2878,116,33.40,36,2572,116,34.30
8146,Riverside Town & Country Club,Winnebago,Minnesota,36259 150th St,56098,-94.1432955,43.7085915,9,Semi-Private,36,3154,124,35.00,36,3013,122,34.90,36,2623,125,36.70
8147,Executive at Cedar Valley Golf Course,Winona,Minnesota,County Rd 9,55987,-91.5492124,43.9675428,9,Semi-Private,,,,,31,1655,,,31,1480,,
8148,Westfield Golf Club,Winona,Minnesota,1460 W 5th St,55987,-91.6762969,44.0545769,9,Public,36,3331,136,35.70,36,3111,132,34.70,36,2833,127,36.10
8149,Winona Country Club,Winona,Minnesota,Pleasant Valley Rd,55987,-91.6027276,43.9996513,18,Private,71,6758,136,73.20,71,6487,134,71.90,74,6098,137,75.80
8150,Regulation Eighteen at Cedar Valley Golf Course,Winona,Minnesota,County Rd 9,55987,-91.5492124,43.9675428,18,Semi-Private,72,6325,119,69.50,72,6000,116,68.00,72,5600,122,71.70
8151,Winthrop Golf Club,Winthrop,Minnesota,Hwy 15,55396,-94.3758604,44.5428726,9,Semi-Private,,,,,36,2912,114,34.10,38,2541,117,34.80
8152,Eagle Valley Golf Course,Woodbury,Minnesota,2600 Double Eagle Ln,55129,-92.89864020000002,44.9113441,18,Public,72,6892,127,73.00,72,6554,124,71.40,72,5207,116,69.50
8153,Prestwick Golf Club at Wedgewood,Woodbury,Minnesota,9555 Wedgewood Dr,55125,-92.9125242,44.8975732,18,Semi-Private,72,6723,127,72.50,72,6334,123,70.70,72,5267,121,71.00
8154,Woodbury Par d,Woodbury,Minnesota,3351 Woodlane Dr,55125,-92.96435919999999,44.9013075,9,Public,,,,,27,1315,99,,30,1265,98,
8155,Prairie View Golf Links,Worthington,Minnesota,Hwy 266 No,56187,-95.7136513,43.7011592,18,Public,71,6368,114,70.10,71,5989,111,68.30,71,5105,111,69.00
8156,Worthington Country Club,Worthington,Minnesota,1414 Liberty Dr,56187,-95.6228003,43.6255466,18,Semi-Private,71,6276,125,70.00,71,5982,123,68.60,71,5243,122,70.80
8157,"Greenwood Golf Links, Inc.",Wyoming,Minnesota,4520 E Viking Blvd,55092,-93.0146932,45.3405918,18,Public,72,5518,105,67.20,72,5438,103,66.50,72,4791,112,67.30
8158,Fairway Shores Golf Course,Zimmerman,Minnesota,28340 131St St,55398,-93.6015999,45.4847829,9,Public,,,,,31,1673,,,31,1673,,
8159,Zumbrota Golf Club,Zumbrota,Minnesota,Sugarloaf Pkwy,55992,-92.6779112,44.3079665,9,Public,34,2806,121,33.60,34,2648,118,32.90,34,2455,116,34.40
